<?xml version="1.0" encoding="UTF-8"?>
<gpx creator="Garmin Connect" version="1.1"
  xsi:schemaLocation="http://www.topografix.com/GPX/1/1 http://www.topografix.com/GPX/11.xsd"
  xmlns:ns3="http://www.garmin.com/xmlschemas/TrackPointExtension/v1"
  xmlns="http://www.topografix.com/GPX/1/1"
  xmlns:xsi="http://www.w3.org/2001/XMLSchema-instance" xmlns:ns2="http://www.garmin.com/xmlschemas/GpxExtensions/v3">
  <metadata>
    <name>Valfurva הליכה</name>
    <link href="connect.garmin.com">
      <text>Garmin Connect</text>
    </link>
    <time>2025-10-07T06:55:58.000Z</time>
  </metadata>
  <wpt lat="46.47688592803586" lon="10.45450295240092">
    <ele>0.0</ele>
    <name>מזון</name>
    <type>FOOD</type>
  </wpt>
  <wpt lat="46.47368489272415" lon="10.45004443833314">
    <ele>0.0</ele>
    <name>מעיין</name>
    <type>SPRING</type>
  </wpt>
  <trk>
    <name>Valfurva הליכה</name>
    <trkseg>
      <trkpt lat="46.48058851249516" lon="10.470687691122293">
        <ele>1875.72</ele>
        <time>2025-10-07T06:55:58.000Z</time>
      </trkpt>
      <trkpt lat="46.48058457300067" lon="10.47061225399375">
        <ele>1875.17</ele>
        <time>2025-10-07T06:55:58.004Z</time>
      </trkpt>
      <trkpt lat="46.48059127852321" lon="10.470441095530987">
        <ele>1874.53</ele>
        <time>2025-10-07T06:55:58.016Z</time>
      </trkpt>
      <trkpt lat="46.4805949665606" lon="10.470410417765379">
        <ele>1873.98</ele>
        <time>2025-10-07T06:55:58.030Z</time>
      </trkpt>
      <trkpt lat="46.48059739731252" lon="10.470330957323313">
        <ele>1873.42</ele>
        <time>2025-10-07T06:55:58.048Z</time>
      </trkpt>
      <trkpt lat="46.4805743470788" lon="10.470230039209127">
        <ele>1872.8</ele>
        <time>2025-10-07T06:55:58.071Z</time>
      </trkpt>
      <trkpt lat="46.4805122371763" lon="10.470114704221487">
        <ele>1871.94</ele>
        <time>2025-10-07T06:55:58.101Z</time>
      </trkpt>
      <trkpt lat="46.48046580143273" lon="10.469910521060228">
        <ele>1871.14</ele>
        <time>2025-10-07T06:55:58.142Z</time>
      </trkpt>
      <trkpt lat="46.48046093992889" lon="10.469816057011485">
        <ele>1870.55</ele>
        <time>2025-10-07T06:55:58.187Z</time>
      </trkpt>
      <trkpt lat="46.48045498877764" lon="10.469757299870253">
        <ele>1870.0</ele>
        <time>2025-10-07T06:55:58.235Z</time>
      </trkpt>
      <trkpt lat="46.48040813393891" lon="10.469568958505988">
        <ele>1869.51</ele>
        <time>2025-10-07T06:55:58.293Z</time>
      </trkpt>
      <trkpt lat="46.48031501099467" lon="10.469341725111008">
        <ele>1868.91</ele>
        <time>2025-10-07T06:55:58.364Z</time>
      </trkpt>
      <trkpt lat="46.48030838929117" lon="10.469319261610508">
        <ele>1868.36</ele>
        <time>2025-10-07T06:55:58.436Z</time>
      </trkpt>
      <trkpt lat="46.48027368821204" lon="10.469172662124038">
        <ele>1867.83</ele>
        <time>2025-10-07T06:55:58.516Z</time>
      </trkpt>
      <trkpt lat="46.480215014889836" lon="10.469030756503344">
        <ele>1867.03</ele>
        <time>2025-10-07T06:55:58.604Z</time>
      </trkpt>
      <trkpt lat="46.48018282838166" lon="10.468853143975139">
        <ele>1866.33</ele>
        <time>2025-10-07T06:55:58.701Z</time>
      </trkpt>
      <trkpt lat="46.48016715422273" lon="10.468717273324728">
        <ele>1865.65</ele>
        <time>2025-10-07T06:55:58.805Z</time>
      </trkpt>
      <trkpt lat="46.480145528912544" lon="10.46852775849402">
        <ele>1864.98</ele>
        <time>2025-10-07T06:55:58.919Z</time>
      </trkpt>
      <trkpt lat="46.480127926915884" lon="10.468417536467314">
        <ele>1864.45</ele>
        <time>2025-10-07T06:55:59.038Z</time>
      </trkpt>
      <trkpt lat="46.480121137574315" lon="10.468371016904712">
        <ele>1864.03</ele>
        <time>2025-10-07T06:55:59.160Z</time>
      </trkpt>
      <trkpt lat="46.48010345175862" lon="10.468213269487023">
        <ele>1863.64</ele>
        <time>2025-10-07T06:55:59.289Z</time>
      </trkpt>
      <trkpt lat="46.480057099834085" lon="10.468033477663994">
        <ele>1863.25</ele>
        <time>2025-10-07T06:55:59.428Z</time>
      </trkpt>
      <trkpt lat="46.48004662245512" lon="10.467964494600892">
        <ele>1863.06</ele>
        <time>2025-10-07T06:55:59.570Z</time>
      </trkpt>
      <trkpt lat="46.480032624676824" lon="10.467912275344133">
        <ele>1862.97</ele>
        <time>2025-10-07T06:55:59.715Z</time>
      </trkpt>
      <trkpt lat="46.48001284338534" lon="10.467770956456661">
        <ele>1862.97</ele>
        <time>2025-10-07T06:55:59.867Z</time>
      </trkpt>
      <trkpt lat="46.48001049645245" lon="10.467601558193564">
        <ele>1863.2</ele>
        <time>2025-10-07T06:56:00.028Z</time>
      </trkpt>
      <trkpt lat="46.48001980036497" lon="10.467531736940145">
        <ele>1863.52</ele>
        <time>2025-10-07T06:56:00.192Z</time>
      </trkpt>
      <trkpt lat="46.480054166167974" lon="10.467363176867366">
        <ele>1864.01</ele>
        <time>2025-10-07T06:56:00.365Z</time>
      </trkpt>
      <trkpt lat="46.480103032663465" lon="10.46708925627172">
        <ele>1864.54</ele>
        <time>2025-10-07T06:56:00.552Z</time>
      </trkpt>
      <trkpt lat="46.48012147285044" lon="10.46692606061697">
        <ele>1864.97</ele>
        <time>2025-10-07T06:56:00.747Z</time>
      </trkpt>
      <trkpt lat="46.48014469072223" lon="10.466819694265723">
        <ele>1865.48</ele>
        <time>2025-10-07T06:56:00.947Z</time>
      </trkpt>
      <trkpt lat="46.48016598075628" lon="10.466762026771903">
        <ele>1866.0</ele>
        <time>2025-10-07T06:56:01.151Z</time>
      </trkpt>
      <trkpt lat="46.48020411841571" lon="10.466593382880092">
        <ele>1866.54</ele>
        <time>2025-10-07T06:56:01.363Z</time>
      </trkpt>
      <trkpt lat="46.48021576926112" lon="10.466460110619664">
        <ele>1866.98</ele>
        <time>2025-10-07T06:56:01.582Z</time>
      </trkpt>
      <trkpt lat="46.48022540844977" lon="10.466371765360236">
        <ele>1867.44</ele>
        <time>2025-10-07T06:56:01.806Z</time>
      </trkpt>
      <trkpt lat="46.480228593572974" lon="10.466352822259068">
        <ele>1867.92</ele>
        <time>2025-10-07T06:56:02.030Z</time>
      </trkpt>
      <trkpt lat="46.480231108143926" lon="10.466219717636704">
        <ele>1868.35</ele>
        <time>2025-10-07T06:56:02.261Z</time>
      </trkpt>
      <trkpt lat="46.48023412562907" lon="10.46619943343103">
        <ele>1868.79</ele>
        <time>2025-10-07T06:56:02.493Z</time>
      </trkpt>
      <trkpt lat="46.48023622110486" lon="10.46618434600532">
        <ele>1869.23</ele>
        <time>2025-10-07T06:56:02.726Z</time>
      </trkpt>
      <trkpt lat="46.480233455076814" lon="10.46616867184639">
        <ele>1869.65</ele>
        <time>2025-10-07T06:56:02.960Z</time>
      </trkpt>
      <trkpt lat="46.48023588582873" lon="10.466112345457077">
        <ele>1870.07</ele>
        <time>2025-10-07T06:56:03.196Z</time>
      </trkpt>
      <trkpt lat="46.48024259135127" lon="10.466051828116179">
        <ele>1870.56</ele>
        <time>2025-10-07T06:56:03.435Z</time>
      </trkpt>
      <trkpt lat="46.48022490553558" lon="10.465919813141227">
        <ele>1871.1</ele>
        <time>2025-10-07T06:56:03.681Z</time>
      </trkpt>
      <trkpt lat="46.48021325469017" lon="10.465870946645737">
        <ele>1871.56</ele>
        <time>2025-10-07T06:56:03.930Z</time>
      </trkpt>
      <trkpt lat="46.480215433984995" lon="10.465798862278461">
        <ele>1872.09</ele>
        <time>2025-10-07T06:56:04.182Z</time>
      </trkpt>
      <trkpt lat="46.48018836043775" lon="10.465717557817698">
        <ele>1872.48</ele>
        <time>2025-10-07T06:56:04.439Z</time>
      </trkpt>
      <trkpt lat="46.48018668405712" lon="10.46569618396461">
        <ele>1872.86</ele>
        <time>2025-10-07T06:56:04.697Z</time>
      </trkpt>
      <trkpt lat="46.480176374316216" lon="10.465629464015365">
        <ele>1873.21</ele>
        <time>2025-10-07T06:56:04.958Z</time>
      </trkpt>
      <trkpt lat="46.48015324026346" lon="10.465434668585658">
        <ele>1873.61</ele>
        <time>2025-10-07T06:56:05.229Z</time>
      </trkpt>
      <trkpt lat="46.480145025998354" lon="10.465344060212374">
        <ele>1873.95</ele>
        <time>2025-10-07T06:56:05.504Z</time>
      </trkpt>
      <trkpt lat="46.4801409188658" lon="10.46531941741705">
        <ele>1874.19</ele>
        <time>2025-10-07T06:56:05.781Z</time>
      </trkpt>
      <trkpt lat="46.48012122139335" lon="10.46518991701305">
        <ele>1874.4</ele>
        <time>2025-10-07T06:56:06.064Z</time>
      </trkpt>
      <trkpt lat="46.48010688833892" lon="10.465112384408712">
        <ele>1874.52</ele>
        <time>2025-10-07T06:56:06.351Z</time>
      </trkpt>
      <trkpt lat="46.48010512813926" lon="10.46508388593793">
        <ele>1874.6</ele>
        <time>2025-10-07T06:56:06.640Z</time>
      </trkpt>
      <trkpt lat="46.48009590804577" lon="10.465019848197699">
        <ele>1874.62</ele>
        <time>2025-10-07T06:56:06.932Z</time>
      </trkpt>
      <trkpt lat="46.48007788695395" lon="10.46496176160872">
        <ele>1874.53</ele>
        <time>2025-10-07T06:56:07.227Z</time>
      </trkpt>
      <trkpt lat="46.48005383089185" lon="10.464914739131927">
        <ele>1874.32</ele>
        <time>2025-10-07T06:56:07.525Z</time>
      </trkpt>
      <trkpt lat="46.48004410788417" lon="10.464818179607391">
        <ele>1874.1</ele>
        <time>2025-10-07T06:56:07.828Z</time>
      </trkpt>
      <trkpt lat="46.48002508096397" lon="10.464651798829436">
        <ele>1873.74</ele>
        <time>2025-10-07T06:56:08.139Z</time>
      </trkpt>
      <trkpt lat="46.48005802184343" lon="10.464522382244468">
        <ele>1873.47</ele>
        <time>2025-10-07T06:56:08.457Z</time>
      </trkpt>
      <trkpt lat="46.48010236211121" lon="10.464489860460162">
        <ele>1873.32</ele>
        <time>2025-10-07T06:56:08.778Z</time>
      </trkpt>
      <trkpt lat="46.48013714700937" lon="10.464441580697894">
        <ele>1873.1</ele>
        <time>2025-10-07T06:56:09.103Z</time>
      </trkpt>
      <trkpt lat="46.480151982977986" lon="10.46441844664514">
        <ele>1872.87</ele>
        <time>2025-10-07T06:56:09.429Z</time>
      </trkpt>
      <trkpt lat="46.4802394900471" lon="10.464341919869184">
        <ele>1872.83</ele>
        <time>2025-10-07T06:56:09.763Z</time>
      </trkpt>
      <trkpt lat="46.480291206389666" lon="10.464266818016768">
        <ele>1872.72</ele>
        <time>2025-10-07T06:56:10.102Z</time>
      </trkpt>
      <trkpt lat="46.48028466850519" lon="10.464260447770357">
        <ele>1872.42</ele>
        <time>2025-10-07T06:56:10.441Z</time>
      </trkpt>
      <trkpt lat="46.4802410826087" lon="10.464252065867186">
        <ele>1871.96</ele>
        <time>2025-10-07T06:56:10.784Z</time>
      </trkpt>
      <trkpt lat="46.48022700101137" lon="10.464246114715934">
        <ele>1871.6</ele>
        <time>2025-10-07T06:56:11.128Z</time>
      </trkpt>
      <trkpt lat="46.48020705208182" lon="10.464223232120275">
        <ele>1871.2</ele>
        <time>2025-10-07T06:56:11.473Z</time>
      </trkpt>
      <trkpt lat="46.48015902377665" lon="10.464193057268858">
        <ele>1870.75</ele>
        <time>2025-10-07T06:56:11.822Z</time>
      </trkpt>
      <trkpt lat="46.48004989139736" lon="10.464089373126626">
        <ele>1870.1</ele>
        <time>2025-10-07T06:56:12.180Z</time>
      </trkpt>
      <trkpt lat="46.47999322973192" lon="10.463962135836482">
        <ele>1869.67</ele>
        <time>2025-10-07T06:56:12.546Z</time>
      </trkpt>
      <trkpt lat="46.47996364161372" lon="10.463741775602102">
        <ele>1869.48</ele>
        <time>2025-10-07T06:56:12.923Z</time>
      </trkpt>
      <trkpt lat="46.47996556945145" lon="10.463590566068888">
        <ele>1869.45</ele>
        <time>2025-10-07T06:56:13.308Z</time>
      </trkpt>
      <trkpt lat="46.47996908985078" lon="10.463565839454532">
        <ele>1869.45</ele>
        <time>2025-10-07T06:56:13.694Z</time>
      </trkpt>
      <trkpt lat="46.4799958281219" lon="10.463453941047192">
        <ele>1869.68</ele>
        <time>2025-10-07T06:56:14.086Z</time>
      </trkpt>
      <trkpt lat="46.48001544177532" lon="10.463338103145361">
        <ele>1869.96</ele>
        <time>2025-10-07T06:56:14.483Z</time>
      </trkpt>
      <trkpt lat="46.480028852820396" lon="10.463170800358057">
        <ele>1870.21</ele>
        <time>2025-10-07T06:56:14.889Z</time>
      </trkpt>
      <trkpt lat="46.480032205581665" lon="10.463109863922">
        <ele>1870.45</ele>
        <time>2025-10-07T06:56:15.298Z</time>
      </trkpt>
      <trkpt lat="46.48004913702607" lon="10.4628801997751">
        <ele>1870.68</ele>
        <time>2025-10-07T06:56:15.718Z</time>
      </trkpt>
      <trkpt lat="46.4800581894815" lon="10.462767546996474">
        <ele>1870.94</ele>
        <time>2025-10-07T06:56:16.144Z</time>
      </trkpt>
      <trkpt lat="46.48006866686046" lon="10.46270384453237">
        <ele>1871.25</ele>
        <time>2025-10-07T06:56:16.573Z</time>
      </trkpt>
      <trkpt lat="46.48011929355562" lon="10.462514078244567">
        <ele>1871.64</ele>
        <time>2025-10-07T06:56:17.012Z</time>
      </trkpt>
      <trkpt lat="46.48014477454126" lon="10.462414668872952">
        <ele>1871.97</ele>
        <time>2025-10-07T06:56:17.456Z</time>
      </trkpt>
      <trkpt lat="46.48016883060336" lon="10.462359180673957">
        <ele>1872.28</ele>
        <time>2025-10-07T06:56:17.904Z</time>
      </trkpt>
      <trkpt lat="46.48021032102406" lon="10.462201097980142">
        <ele>1872.59</ele>
        <time>2025-10-07T06:56:18.360Z</time>
      </trkpt>
      <trkpt lat="46.48023563437164" lon="10.462010577321053">
        <ele>1872.68</ele>
        <time>2025-10-07T06:56:18.825Z</time>
      </trkpt>
      <trkpt lat="46.48025969043374" lon="10.461877640336752">
        <ele>1872.79</ele>
        <time>2025-10-07T06:56:19.297Z</time>
      </trkpt>
      <trkpt lat="46.48025759495795" lon="10.461780913174152">
        <ele>1872.81</ele>
        <time>2025-10-07T06:56:19.774Z</time>
      </trkpt>
      <trkpt lat="46.480257427319884" lon="10.461772698909044">
        <ele>1872.8</ele>
        <time>2025-10-07T06:56:20.251Z</time>
      </trkpt>
      <trkpt lat="46.48026078008115" lon="10.461740009486675">
        <ele>1872.71</ele>
        <time>2025-10-07T06:56:20.730Z</time>
      </trkpt>
      <trkpt lat="46.48025969043374" lon="10.461705392226577">
        <ele>1872.55</ele>
        <time>2025-10-07T06:56:21.211Z</time>
      </trkpt>
      <trkpt lat="46.480242256075144" lon="10.461615957319736">
        <ele>1872.23</ele>
        <time>2025-10-07T06:56:21.696Z</time>
      </trkpt>
      <trkpt lat="46.48020738735795" lon="10.461496850475669">
        <ele>1871.75</ele>
        <time>2025-10-07T06:56:22.188Z</time>
      </trkpt>
      <trkpt lat="46.480202693492174" lon="10.461416132748127">
        <ele>1871.36</ele>
        <time>2025-10-07T06:56:22.684Z</time>
      </trkpt>
      <trkpt lat="46.48020504042506" lon="10.461214296519756">
        <ele>1870.87</ele>
        <time>2025-10-07T06:56:23.190Z</time>
      </trkpt>
      <trkpt lat="46.48021032102406" lon="10.461196694523096">
        <ele>1870.36</ele>
        <time>2025-10-07T06:56:23.697Z</time>
      </trkpt>
      <trkpt lat="46.48022968322039" lon="10.461173644289374">
        <ele>1869.84</ele>
        <time>2025-10-07T06:56:24.205Z</time>
      </trkpt>
      <trkpt lat="46.48022926412523" lon="10.46115922741592">
        <ele>1869.14</ele>
        <time>2025-10-07T06:56:24.714Z</time>
      </trkpt>
      <trkpt lat="46.48023488000035" lon="10.461121089756489">
        <ele>1868.38</ele>
        <time>2025-10-07T06:56:25.225Z</time>
      </trkpt>
      <trkpt lat="46.48024208843708" lon="10.46104690991342">
        <ele>1867.5</ele>
        <time>2025-10-07T06:56:25.740Z</time>
      </trkpt>
      <trkpt lat="46.48024317808449" lon="10.461032828316092">
        <ele>1866.51</ele>
        <time>2025-10-07T06:56:26.256Z</time>
      </trkpt>
      <trkpt lat="46.48024393245578" lon="10.460909698158503">
        <ele>1865.34</ele>
        <time>2025-10-07T06:56:26.778Z</time>
      </trkpt>
      <trkpt lat="46.4802254922688" lon="10.460774414241314">
        <ele>1863.99</ele>
        <time>2025-10-07T06:56:27.306Z</time>
      </trkpt>
      <trkpt lat="46.480180313810706" lon="10.460618259385228">
        <ele>1862.48</ele>
        <time>2025-10-07T06:56:27.843Z</time>
      </trkpt>
      <trkpt lat="46.480170506983995" lon="10.460580540820956">
        <ele>1861.11</ele>
        <time>2025-10-07T06:56:28.382Z</time>
      </trkpt>
      <trkpt lat="46.48013739846647" lon="10.460496302694082">
        <ele>1859.55</ele>
        <time>2025-10-07T06:56:28.926Z</time>
      </trkpt>
      <trkpt lat="46.48010278120637" lon="10.460368730127811">
        <ele>1857.95</ele>
        <time>2025-10-07T06:56:29.476Z</time>
      </trkpt>
      <trkpt lat="46.4800975844264" lon="10.46033838763833">
        <ele>1856.44</ele>
        <time>2025-10-07T06:56:30.028Z</time>
      </trkpt>
      <trkpt lat="46.48006707429886" lon="10.46019815839827">
        <ele>1854.78</ele>
        <time>2025-10-07T06:56:30.587Z</time>
      </trkpt>
      <trkpt lat="46.48004519753158" lon="10.460140909999609">
        <ele>1853.16</ele>
        <time>2025-10-07T06:56:31.149Z</time>
      </trkpt>
      <trkpt lat="46.48003404960036" lon="10.460116853937507">
        <ele>1851.58</ele>
        <time>2025-10-07T06:56:31.713Z</time>
      </trkpt>
      <trkpt lat="46.479989206418395" lon="10.460026664659381">
        <ele>1849.87</ele>
        <time>2025-10-07T06:56:32.282Z</time>
      </trkpt>
      <trkpt lat="46.47994981147349" lon="10.459847543388605">
        <ele>1848.21</ele>
        <time>2025-10-07T06:56:32.861Z</time>
      </trkpt>
      <trkpt lat="46.479892395436764" lon="10.459582339972258">
        <ele>1846.51</ele>
        <time>2025-10-07T06:56:33.453Z</time>
      </trkpt>
      <trkpt lat="46.479870937764645" lon="10.459415959194303">
        <ele>1844.96</ele>
        <time>2025-10-07T06:56:34.054Z</time>
      </trkpt>
      <trkpt lat="46.479861717671156" lon="10.459406236186624">
        <ele>1843.48</ele>
        <time>2025-10-07T06:56:34.655Z</time>
      </trkpt>
      <trkpt lat="46.47985517978668" lon="10.459286542609334">
        <ele>1842.04</ele>
        <time>2025-10-07T06:56:35.262Z</time>
      </trkpt>
      <trkpt lat="46.479786867275834" lon="10.459119575098157">
        <ele>1840.46</ele>
        <time>2025-10-07T06:56:35.879Z</time>
      </trkpt>
      <trkpt lat="46.47973674349487" lon="10.459099542349577">
        <ele>1838.94</ele>
        <time>2025-10-07T06:56:36.500Z</time>
      </trkpt>
      <trkpt lat="46.479726517573" lon="10.45905671082437">
        <ele>1837.54</ele>
        <time>2025-10-07T06:56:37.123Z</time>
      </trkpt>
      <trkpt lat="46.47965434938669" lon="10.458981692790985">
        <ele>1836.02</ele>
        <time>2025-10-07T06:56:37.752Z</time>
      </trkpt>
      <trkpt lat="46.47961646318436" lon="10.458839619532228">
        <ele>1834.59</ele>
        <time>2025-10-07T06:56:38.389Z</time>
      </trkpt>
      <trkpt lat="46.479622246697545" lon="10.458674831315875">
        <ele>1833.28</ele>
        <time>2025-10-07T06:56:39.034Z</time>
      </trkpt>
      <trkpt lat="46.47962593473494" lon="10.458647841587663">
        <ele>1831.95</ele>
        <time>2025-10-07T06:56:39.680Z</time>
      </trkpt>
      <trkpt lat="46.47970112040639" lon="10.458466205745935">
        <ele>1830.83</ele>
        <time>2025-10-07T06:56:40.337Z</time>
      </trkpt>
      <trkpt lat="46.47968754172325" lon="10.458460841327906">
        <ele>1829.44</ele>
        <time>2025-10-07T06:56:40.995Z</time>
      </trkpt>
      <trkpt lat="46.47960799746215" lon="10.45850157737732">
        <ele>1827.88</ele>
        <time>2025-10-07T06:56:41.659Z</time>
      </trkpt>
      <trkpt lat="46.479459051042795" lon="10.458513563498855">
        <ele>1826.13</ele>
        <time>2025-10-07T06:56:42.333Z</time>
      </trkpt>
      <trkpt lat="46.479379339143634" lon="10.458468804135919">
        <ele>1824.6</ele>
        <time>2025-10-07T06:56:43.013Z</time>
      </trkpt>
      <trkpt lat="46.47926635108888" lon="10.458344416692853">
        <ele>1823.06</ele>
        <time>2025-10-07T06:56:43.704Z</time>
      </trkpt>
      <trkpt lat="46.47917632944882" lon="10.458103772252798">
        <ele>1821.58</ele>
        <time>2025-10-07T06:56:44.408Z</time>
      </trkpt>
      <trkpt lat="46.4791411254555" lon="10.457905204966664">
        <ele>1820.24</ele>
        <time>2025-10-07T06:56:45.122Z</time>
      </trkpt>
      <trkpt lat="46.479137018322945" lon="10.457878801971674">
        <ele>1819.09</ele>
        <time>2025-10-07T06:56:45.838Z</time>
      </trkpt>
      <trkpt lat="46.47912469692528" lon="10.457771262153983">
        <ele>1817.96</ele>
        <time>2025-10-07T06:56:46.559Z</time>
      </trkpt>
      <trkpt lat="46.47911782376468" lon="10.45754972845316">
        <ele>1816.92</ele>
        <time>2025-10-07T06:56:47.291Z</time>
      </trkpt>
      <trkpt lat="46.47908052429557" lon="10.457393238320947">
        <ele>1815.93</ele>
        <time>2025-10-07T06:56:48.031Z</time>
      </trkpt>
      <trkpt lat="46.47907264530659" lon="10.457227947190404">
        <ele>1815.06</ele>
        <time>2025-10-07T06:56:48.779Z</time>
      </trkpt>
      <trkpt lat="46.479081362485886" lon="10.457088807597756">
        <ele>1814.32</ele>
        <time>2025-10-07T06:56:49.534Z</time>
      </trkpt>
      <trkpt lat="46.479088654741645" lon="10.456967102363706">
        <ele>1813.63</ele>
        <time>2025-10-07T06:56:50.295Z</time>
      </trkpt>
      <trkpt lat="46.479076417163014" lon="10.45694631524384">
        <ele>1812.99</ele>
        <time>2025-10-07T06:56:51.058Z</time>
      </trkpt>
      <trkpt lat="46.479057390242815" lon="10.456897616386414">
        <ele>1812.4</ele>
        <time>2025-10-07T06:56:51.823Z</time>
      </trkpt>
      <trkpt lat="46.47902109660208" lon="10.456827292218804">
        <ele>1811.83</ele>
        <time>2025-10-07T06:56:52.593Z</time>
      </trkpt>
      <trkpt lat="46.478980695828795" lon="10.456720003858209">
        <ele>1811.27</ele>
        <time>2025-10-07T06:56:53.369Z</time>
      </trkpt>
      <trkpt lat="46.47896636277437" lon="10.456624450162053">
        <ele>1810.78</ele>
        <time>2025-10-07T06:56:54.150Z</time>
      </trkpt>
      <trkpt lat="46.47897214628756" lon="10.456440635025501">
        <ele>1810.33</ele>
        <time>2025-10-07T06:56:54.940Z</time>
      </trkpt>
      <trkpt lat="46.4789857249707" lon="10.456273751333356">
        <ele>1810.0</ele>
        <time>2025-10-07T06:56:55.738Z</time>
      </trkpt>
      <trkpt lat="46.47897248156369" lon="10.456239134073257">
        <ele>1809.46</ele>
        <time>2025-10-07T06:56:56.538Z</time>
      </trkpt>
      <trkpt lat="46.47898027673364" lon="10.456256149336696">
        <ele>1808.88</ele>
        <time>2025-10-07T06:56:57.339Z</time>
      </trkpt>
      <trkpt lat="46.47892118431628" lon="10.456246761605144">
        <ele>1808.09</ele>
        <time>2025-10-07T06:56:58.144Z</time>
      </trkpt>
      <trkpt lat="46.47883778437972" lon="10.456238966435194">
        <ele>1807.16</ele>
        <time>2025-10-07T06:56:58.955Z</time>
      </trkpt>
      <trkpt lat="46.478820014745" lon="10.456234691664577">
        <ele>1806.36</ele>
        <time>2025-10-07T06:56:59.767Z</time>
      </trkpt>
      <trkpt lat="46.47877818904817" lon="10.45620460063219">
        <ele>1805.43</ele>
        <time>2025-10-07T06:57:00.583Z</time>
      </trkpt>
      <trkpt lat="46.47870861925185" lon="10.456111645326018">
        <ele>1804.4</ele>
        <time>2025-10-07T06:57:01.405Z</time>
      </trkpt>
      <trkpt lat="46.47867349907756" lon="10.456030340865254">
        <ele>1803.39</ele>
        <time>2025-10-07T06:57:02.232Z</time>
      </trkpt>
      <trkpt lat="46.478671319782734" lon="10.456008380278945">
        <ele>1802.4</ele>
        <time>2025-10-07T06:57:03.060Z</time>
      </trkpt>
      <trkpt lat="46.47865790873766" lon="10.455968147143722">
        <ele>1801.31</ele>
        <time>2025-10-07T06:57:03.891Z</time>
      </trkpt>
      <trkpt lat="46.47864265367389" lon="10.455934787169099">
        <ele>1800.16</ele>
        <time>2025-10-07T06:57:04.723Z</time>
      </trkpt>
      <trkpt lat="46.478596637025476" lon="10.455766394734383">
        <ele>1798.93</ele>
        <time>2025-10-07T06:57:05.564Z</time>
      </trkpt>
      <trkpt lat="46.47858213633299" lon="10.45570612885058">
        <ele>1797.67</ele>
        <time>2025-10-07T06:57:06.409Z</time>
      </trkpt>
      <trkpt lat="46.478572161868215" lon="10.455660112202168">
        <ele>1796.39</ele>
        <time>2025-10-07T06:57:07.256Z</time>
      </trkpt>
      <trkpt lat="46.47854642942548" lon="10.455509824678302">
        <ele>1795.03</ele>
        <time>2025-10-07T06:57:08.111Z</time>
      </trkpt>
      <trkpt lat="46.478483732789755" lon="10.45545257627964">
        <ele>1793.45</ele>
        <time>2025-10-07T06:57:08.971Z</time>
      </trkpt>
      <trkpt lat="46.47841131314635" lon="10.455252416431904">
        <ele>1791.77</ele>
        <time>2025-10-07T06:57:09.842Z</time>
      </trkpt>
      <trkpt lat="46.47836630232632" lon="10.455053681507707">
        <ele>1790.19</ele>
        <time>2025-10-07T06:57:10.723Z</time>
      </trkpt>
      <trkpt lat="46.478331768885255" lon="10.454931976273656">
        <ele>1788.68</ele>
        <time>2025-10-07T06:57:11.611Z</time>
      </trkpt>
      <trkpt lat="46.47828265093267" lon="10.454737599939108">
        <ele>1787.15</ele>
        <time>2025-10-07T06:57:12.509Z</time>
      </trkpt>
      <trkpt lat="46.47825909778476" lon="10.454717902466655">
        <ele>1785.76</ele>
        <time>2025-10-07T06:57:13.409Z</time>
      </trkpt>
      <trkpt lat="46.4782430883497" lon="10.454713040962815">
        <ele>1784.43</ele>
        <time>2025-10-07T06:57:14.310Z</time>
      </trkpt>
      <trkpt lat="46.47820394486189" lon="10.454747825860977">
        <ele>1783.06</ele>
        <time>2025-10-07T06:57:15.214Z</time>
      </trkpt>
      <trkpt lat="46.4781965687871" lon="10.454813539981842">
        <ele>1781.87</ele>
        <time>2025-10-07T06:57:16.122Z</time>
      </trkpt>
      <trkpt lat="46.47819824516773" lon="10.45485452748835">
        <ele>1780.77</ele>
        <time>2025-10-07T06:57:17.032Z</time>
      </trkpt>
      <trkpt lat="46.47820939309895" lon="10.454921247437596">
        <ele>1779.74</ele>
        <time>2025-10-07T06:57:17.945Z</time>
      </trkpt>
      <trkpt lat="46.47822791710496" lon="10.454994924366474">
        <ele>1778.79</ele>
        <time>2025-10-07T06:57:18.862Z</time>
      </trkpt>
      <trkpt lat="46.47821333259344" lon="10.455033900216222">
        <ele>1777.76</ele>
        <time>2025-10-07T06:57:19.781Z</time>
      </trkpt>
      <trkpt lat="46.47818852216005" lon="10.455084191635251">
        <ele>1776.73</ele>
        <time>2025-10-07T06:57:20.703Z</time>
      </trkpt>
      <trkpt lat="46.478185253217816" lon="10.455099530518055">
        <ele>1775.8</ele>
        <time>2025-10-07T06:57:21.626Z</time>
      </trkpt>
      <trkpt lat="46.478149043396115" lon="10.455199023708701">
        <ele>1774.8</ele>
        <time>2025-10-07T06:57:22.555Z</time>
      </trkpt>
      <trkpt lat="46.478132866322994" lon="10.45529080554843">
        <ele>1773.89</ele>
        <time>2025-10-07T06:57:23.488Z</time>
      </trkpt>
      <trkpt lat="46.4781376440078" lon="10.45536020770669">
        <ele>1773.07</ele>
        <time>2025-10-07T06:57:24.425Z</time>
      </trkpt>
      <trkpt lat="46.47814091295004" lon="10.45547403395176">
        <ele>1772.3</ele>
        <time>2025-10-07T06:57:25.367Z</time>
      </trkpt>
      <trkpt lat="46.478143176063895" lon="10.455551147460938">
        <ele>1771.51</ele>
        <time>2025-10-07T06:57:26.313Z</time>
      </trkpt>
      <trkpt lat="46.47802708670497" lon="10.45571400783956">
        <ele>1770.3</ele>
        <time>2025-10-07T06:57:27.271Z</time>
      </trkpt>
      <trkpt lat="46.47800177335739" lon="10.455779051408172">
        <ele>1769.43</ele>
        <time>2025-10-07T06:57:28.232Z</time>
      </trkpt>
      <trkpt lat="46.477983919903636" lon="10.45585373416543">
        <ele>1768.61</ele>
        <time>2025-10-07T06:57:29.197Z</time>
      </trkpt>
      <trkpt lat="46.47795592434704" lon="10.456011146306992">
        <ele>1767.75</ele>
        <time>2025-10-07T06:57:30.170Z</time>
      </trkpt>
      <trkpt lat="46.47791384719312" lon="10.456111561506987">
        <ele>1766.85</ele>
        <time>2025-10-07T06:57:31.149Z</time>
      </trkpt>
      <trkpt lat="46.47791661322117" lon="10.456130672246218">
        <ele>1766.21</ele>
        <time>2025-10-07T06:57:32.129Z</time>
      </trkpt>
      <trkpt lat="46.47796011529863" lon="10.456220107153058">
        <ele>1765.69</ele>
        <time>2025-10-07T06:57:33.115Z</time>
      </trkpt>
      <trkpt lat="46.477969251573086" lon="10.456234524026513">
        <ele>1765.16</ele>
        <time>2025-10-07T06:57:34.101Z</time>
      </trkpt>
      <trkpt lat="46.478015687316656" lon="10.456375256180763">
        <ele>1764.74</ele>
        <time>2025-10-07T06:57:35.095Z</time>
      </trkpt>
      <trkpt lat="46.477949218824506" lon="10.456495704129338">
        <ele>1764.16</ele>
        <time>2025-10-07T06:57:36.097Z</time>
      </trkpt>
      <trkpt lat="46.47785752080381" lon="10.456556472927332">
        <ele>1763.47</ele>
        <time>2025-10-07T06:57:37.106Z</time>
      </trkpt>
      <trkpt lat="46.477858778089285" lon="10.456568961963058">
        <ele>1763.14</ele>
        <time>2025-10-07T06:57:38.116Z</time>
      </trkpt>
      <trkpt lat="46.47782173007727" lon="10.456608021631837">
        <ele>1762.74</ele>
        <time>2025-10-07T06:57:39.129Z</time>
      </trkpt>
      <trkpt lat="46.47778728045523" lon="10.45662872493267">
        <ele>1762.41</ele>
        <time>2025-10-07T06:57:40.145Z</time>
      </trkpt>
      <trkpt lat="46.47778677754104" lon="10.456691673025489">
        <ele>1762.29</ele>
        <time>2025-10-07T06:57:41.164Z</time>
      </trkpt>
      <trkpt lat="46.477791303768754" lon="10.45675914734602">
        <ele>1762.25</ele>
        <time>2025-10-07T06:57:42.186Z</time>
      </trkpt>
      <trkpt lat="46.477781077846885" lon="10.456823017448187">
        <ele>1762.21</ele>
        <time>2025-10-07T06:57:43.211Z</time>
      </trkpt>
      <trkpt lat="46.47778736427426" lon="10.456846067681909">
        <ele>1762.25</ele>
        <time>2025-10-07T06:57:44.237Z</time>
      </trkpt>
      <trkpt lat="46.477816281840205" lon="10.456959810107946">
        <ele>1762.45</ele>
        <time>2025-10-07T06:57:45.269Z</time>
      </trkpt>
      <trkpt lat="46.47782240062952" lon="10.456980681046844">
        <ele>1762.53</ele>
        <time>2025-10-07T06:57:46.303Z</time>
      </trkpt>
      <trkpt lat="46.47782248444855" lon="10.45704497024417">
        <ele>1762.6</ele>
        <time>2025-10-07T06:57:47.340Z</time>
      </trkpt>
      <trkpt lat="46.47782089188695" lon="10.457110768184066">
        <ele>1762.66</ele>
        <time>2025-10-07T06:57:48.380Z</time>
      </trkpt>
      <trkpt lat="46.47782198153436" lon="10.45713440515101">
        <ele>1762.66</ele>
        <time>2025-10-07T06:57:49.421Z</time>
      </trkpt>
      <trkpt lat="46.477819215506315" lon="10.457261223345995">
        <ele>1762.63</ele>
        <time>2025-10-07T06:57:50.468Z</time>
      </trkpt>
      <trkpt lat="46.47783589549363" lon="10.457411427050829">
        <ele>1762.6</ele>
        <time>2025-10-07T06:57:51.523Z</time>
      </trkpt>
      <trkpt lat="46.477828016504645" lon="10.45762105844915">
        <ele>1762.42</ele>
        <time>2025-10-07T06:57:52.588Z</time>
      </trkpt>
      <trkpt lat="46.47781879641116" lon="10.457665314897895">
        <ele>1762.18</ele>
        <time>2025-10-07T06:57:53.656Z</time>
      </trkpt>
      <trkpt lat="46.47780337370932" lon="10.457696495577693">
        <ele>1761.85</ele>
        <time>2025-10-07T06:57:54.725Z</time>
      </trkpt>
      <trkpt lat="46.47775299847126" lon="10.457717701792717">
        <ele>1761.39</ele>
        <time>2025-10-07T06:57:55.798Z</time>
      </trkpt>
      <trkpt lat="46.47771595045924" lon="10.457696747034788">
        <ele>1760.93</ele>
        <time>2025-10-07T06:57:56.874Z</time>
      </trkpt>
      <trkpt lat="46.47770966403186" lon="10.457640839740634">
        <ele>1760.41</ele>
        <time>2025-10-07T06:57:57.953Z</time>
      </trkpt>
      <trkpt lat="46.47770807147026" lon="10.457611586898565">
        <ele>1759.85</ele>
        <time>2025-10-07T06:57:59.033Z</time>
      </trkpt>
      <trkpt lat="46.47769290022552" lon="10.457506226375699">
        <ele>1759.2</ele>
        <time>2025-10-07T06:58:00.119Z</time>
      </trkpt>
      <trkpt lat="46.47767529822886" lon="10.457391729578376">
        <ele>1758.43</ele>
        <time>2025-10-07T06:58:01.210Z</time>
      </trkpt>
      <trkpt lat="46.477617463096976" lon="10.45722191222012">
        <ele>1757.69</ele>
        <time>2025-10-07T06:58:02.311Z</time>
      </trkpt>
      <trkpt lat="46.47758645005524" lon="10.457095429301262">
        <ele>1756.87</ele>
        <time>2025-10-07T06:58:03.418Z</time>
      </trkpt>
      <trkpt lat="46.47757521830499" lon="10.457077324390411">
        <ele>1756.22</ele>
        <time>2025-10-07T06:58:04.527Z</time>
      </trkpt>
      <trkpt lat="46.4775799959898" lon="10.457055699080229">
        <ele>1755.62</ele>
        <time>2025-10-07T06:58:05.637Z</time>
      </trkpt>
      <trkpt lat="46.47758544422686" lon="10.456992331892252">
        <ele>1755.04</ele>
        <time>2025-10-07T06:58:06.750Z</time>
      </trkpt>
      <trkpt lat="46.47757764905691" lon="10.456973724067211">
        <ele>1754.51</ele>
        <time>2025-10-07T06:58:07.864Z</time>
      </trkpt>
      <trkpt lat="46.477543199434876" lon="10.456900047138333">
        <ele>1753.96</ele>
        <time>2025-10-07T06:58:08.982Z</time>
      </trkpt>
      <trkpt lat="46.477493243291974" lon="10.456806840375066">
        <ele>1753.44</ele>
        <time>2025-10-07T06:58:10.106Z</time>
      </trkpt>
      <trkpt lat="46.4774692710489" lon="10.456779599189758">
        <ele>1753.17</ele>
        <time>2025-10-07T06:58:11.232Z</time>
      </trkpt>
      <trkpt lat="46.47744412533939" lon="10.456775156781077">
        <ele>1752.98</ele>
        <time>2025-10-07T06:58:12.360Z</time>
      </trkpt>
      <trkpt lat="46.47743817418814" lon="10.456745652481914">
        <ele>1752.82</ele>
        <time>2025-10-07T06:58:13.490Z</time>
      </trkpt>
      <trkpt lat="46.477382434532046" lon="10.456719752401114">
        <ele>1752.81</ele>
        <time>2025-10-07T06:58:14.624Z</time>
      </trkpt>
      <trkpt lat="46.47737036459148" lon="10.456707095727324">
        <ele>1752.78</ele>
        <time>2025-10-07T06:58:15.759Z</time>
      </trkpt>
      <trkpt lat="46.47733214311302" lon="10.456660576164722">
        <ele>1752.84</ele>
        <time>2025-10-07T06:58:16.897Z</time>
      </trkpt>
      <trkpt lat="46.4773035608232" lon="10.45661598443985">
        <ele>1752.93</ele>
        <time>2025-10-07T06:58:18.038Z</time>
      </trkpt>
      <trkpt lat="46.4772829413414" lon="10.456542810425162">
        <ele>1753.02</ele>
        <time>2025-10-07T06:58:19.183Z</time>
      </trkpt>
      <trkpt lat="46.47729283198714" lon="10.45646351762116">
        <ele>1753.08</ele>
        <time>2025-10-07T06:58:20.332Z</time>
      </trkpt>
      <trkpt lat="46.47730238735676" lon="10.456362599506974">
        <ele>1753.15</ele>
        <time>2025-10-07T06:58:21.486Z</time>
      </trkpt>
      <trkpt lat="46.47730305790901" lon="10.456332759931684">
        <ele>1753.26</ele>
        <time>2025-10-07T06:58:22.642Z</time>
      </trkpt>
      <trkpt lat="46.47730104625225" lon="10.456299064680934">
        <ele>1753.37</ele>
        <time>2025-10-07T06:58:23.800Z</time>
      </trkpt>
      <trkpt lat="46.47729182615876" lon="10.45625053346157">
        <ele>1753.49</ele>
        <time>2025-10-07T06:58:24.960Z</time>
      </trkpt>
      <trkpt lat="46.47728746756911" lon="10.456230752170086">
        <ele>1753.55</ele>
        <time>2025-10-07T06:58:26.121Z</time>
      </trkpt>
      <trkpt lat="46.477267602458596" lon="10.456170486286283">
        <ele>1753.62</ele>
        <time>2025-10-07T06:58:27.285Z</time>
      </trkpt>
      <trkpt lat="46.47726441733539" lon="10.456137545406818">
        <ele>1753.6</ele>
        <time>2025-10-07T06:58:28.451Z</time>
      </trkpt>
      <trkpt lat="46.477256789803505" lon="10.456108711659908">
        <ele>1753.52</ele>
        <time>2025-10-07T06:58:29.619Z</time>
      </trkpt>
      <trkpt lat="46.47725452668965" lon="10.456063952296972">
        <ele>1753.34</ele>
        <time>2025-10-07T06:58:30.789Z</time>
      </trkpt>
      <trkpt lat="46.47726081311703" lon="10.455995053052902">
        <ele>1753.03</ele>
        <time>2025-10-07T06:58:31.962Z</time>
      </trkpt>
      <trkpt lat="46.47727866657078" lon="10.45589430257678">
        <ele>1752.6</ele>
        <time>2025-10-07T06:58:33.140Z</time>
      </trkpt>
      <trkpt lat="46.4772779121995" lon="10.455835461616516">
        <ele>1752.29</ele>
        <time>2025-10-07T06:58:34.321Z</time>
      </trkpt>
      <trkpt lat="46.47727858275175" lon="10.45581509359181">
        <ele>1751.92</ele>
        <time>2025-10-07T06:58:35.503Z</time>
      </trkpt>
      <trkpt lat="46.47727321833372" lon="10.455753989517689">
        <ele>1751.4</ele>
        <time>2025-10-07T06:58:36.688Z</time>
      </trkpt>
      <trkpt lat="46.477286545559764" lon="10.455721551552415">
        <ele>1750.88</ele>
        <time>2025-10-07T06:58:37.875Z</time>
      </trkpt>
      <trkpt lat="46.47728788666427" lon="10.45569883659482">
        <ele>1750.33</ele>
        <time>2025-10-07T06:58:39.063Z</time>
      </trkpt>
      <trkpt lat="46.477299369871616" lon="10.455624740570784">
        <ele>1749.66</ele>
        <time>2025-10-07T06:58:40.255Z</time>
      </trkpt>
      <trkpt lat="46.47727564908564" lon="10.455571012571454">
        <ele>1749.06</ele>
        <time>2025-10-07T06:58:41.450Z</time>
      </trkpt>
      <trkpt lat="46.477263579145074" lon="10.455533377826214">
        <ele>1748.43</ele>
        <time>2025-10-07T06:58:42.647Z</time>
      </trkpt>
      <trkpt lat="46.47725150920451" lon="10.455506891012192">
        <ele>1747.75</ele>
        <time>2025-10-07T06:58:43.846Z</time>
      </trkpt>
      <trkpt lat="46.477244133129716" lon="10.455475961789489">
        <ele>1747.04</ele>
        <time>2025-10-07T06:58:45.046Z</time>
      </trkpt>
      <trkpt lat="46.47720239125192" lon="10.455365739762783">
        <ele>1746.23</ele>
        <time>2025-10-07T06:58:46.253Z</time>
      </trkpt>
      <trkpt lat="46.47719610482454" lon="10.455353753641248">
        <ele>1745.5</ele>
        <time>2025-10-07T06:58:47.460Z</time>
      </trkpt>
      <trkpt lat="46.47720381617546" lon="10.455292314291">
        <ele>1744.66</ele>
        <time>2025-10-07T06:58:48.670Z</time>
      </trkpt>
      <trkpt lat="46.477197194471955" lon="10.45518720522523">
        <ele>1743.85</ele>
        <time>2025-10-07T06:58:49.886Z</time>
      </trkpt>
      <trkpt lat="46.47711714729667" lon="10.45508318580687">
        <ele>1743.12</ele>
        <time>2025-10-07T06:58:51.109Z</time>
      </trkpt>
      <trkpt lat="46.47707724943757" lon="10.454933904111385">
        <ele>1742.18</ele>
        <time>2025-10-07T06:58:52.340Z</time>
      </trkpt>
      <trkpt lat="46.4770223479718" lon="10.454805493354797">
        <ele>1741.03</ele>
        <time>2025-10-07T06:58:53.579Z</time>
      </trkpt>
      <trkpt lat="46.47702410817146" lon="10.454799039289355">
        <ele>1740.03</ele>
        <time>2025-10-07T06:58:54.818Z</time>
      </trkpt>
      <trkpt lat="46.4770324062556" lon="10.454800296574831">
        <ele>1739.02</ele>
        <time>2025-10-07T06:58:56.058Z</time>
      </trkpt>
      <trkpt lat="46.47699703462422" lon="10.45475285500288">
        <ele>1737.93</ele>
        <time>2025-10-07T06:58:57.301Z</time>
      </trkpt>
      <trkpt lat="46.4769359305501" lon="10.454611200839281">
        <ele>1736.69</ele>
        <time>2025-10-07T06:58:58.552Z</time>
      </trkpt>
      <trkpt lat="46.476885890588164" lon="10.454502906650305">
        <ele>1735.54</ele>
        <time>2025-10-07T06:58:59.810Z</time>
      </trkpt>
      <trkpt lat="46.47683526389301" lon="10.454393271356821">
        <ele>1734.35</ele>
        <time>2025-10-07T06:59:01.074Z</time>
      </trkpt>
      <trkpt lat="46.47677441127598" lon="10.454233344644308">
        <ele>1733.07</ele>
        <time>2025-10-07T06:59:02.347Z</time>
      </trkpt>
      <trkpt lat="46.47672059945762" lon="10.454070819541812">
        <ele>1731.77</ele>
        <time>2025-10-07T06:59:03.629Z</time>
      </trkpt>
      <trkpt lat="46.47669805213809" lon="10.453947940841317">
        <ele>1730.46</ele>
        <time>2025-10-07T06:59:04.917Z</time>
      </trkpt>
      <trkpt lat="46.476683132350445" lon="10.453911647200584">
        <ele>1729.29</ele>
        <time>2025-10-07T06:59:06.207Z</time>
      </trkpt>
      <trkpt lat="46.47665547206998" lon="10.45384056866169">
        <ele>1728.15</ele>
        <time>2025-10-07T06:59:07.502Z</time>
      </trkpt>
      <trkpt lat="46.476604007184505" lon="10.453679971396923">
        <ele>1727.15</ele>
        <time>2025-10-07T06:59:08.805Z</time>
      </trkpt>
      <trkpt lat="46.476559499278665" lon="10.453517194837332">
        <ele>1726.03</ele>
        <time>2025-10-07T06:59:10.117Z</time>
      </trkpt>
      <trkpt lat="46.47653401829302" lon="10.453418539837003">
        <ele>1724.94</ele>
        <time>2025-10-07T06:59:11.434Z</time>
      </trkpt>
      <trkpt lat="46.47651524282992" lon="10.453357771039009">
        <ele>1723.97</ele>
        <time>2025-10-07T06:59:12.754Z</time>
      </trkpt>
      <trkpt lat="46.47648808546364" lon="10.453223241493106">
        <ele>1722.92</ele>
        <time>2025-10-07T06:59:14.081Z</time>
      </trkpt>
      <trkpt lat="46.476435447111726" lon="10.453084269538522">
        <ele>1721.98</ele>
        <time>2025-10-07T06:59:15.416Z</time>
      </trkpt>
      <trkpt lat="46.47639110684395" lon="10.45299818739295">
        <ele>1721.23</ele>
        <time>2025-10-07T06:59:16.756Z</time>
      </trkpt>
      <trkpt lat="46.476375851780176" lon="10.452978070825338">
        <ele>1720.64</ele>
        <time>2025-10-07T06:59:18.098Z</time>
      </trkpt>
      <trkpt lat="46.47633260115981" lon="10.452899867668748">
        <ele>1720.15</ele>
        <time>2025-10-07T06:59:19.445Z</time>
      </trkpt>
      <trkpt lat="46.47630016319454" lon="10.45282032340765">
        <ele>1719.75</ele>
        <time>2025-10-07T06:59:20.796Z</time>
      </trkpt>
      <trkpt lat="46.47626521065831" lon="10.4527900647372">
        <ele>1719.51</ele>
        <time>2025-10-07T06:59:22.150Z</time>
      </trkpt>
      <trkpt lat="46.47624962031841" lon="10.452776318416">
        <ele>1719.35</ele>
        <time>2025-10-07T06:59:23.506Z</time>
      </trkpt>
      <trkpt lat="46.4762210380286" lon="10.452743461355567">
        <ele>1719.26</ele>
        <time>2025-10-07T06:59:24.864Z</time>
      </trkpt>
      <trkpt lat="46.47621056064963" lon="10.452723763883114">
        <ele>1719.22</ele>
        <time>2025-10-07T06:59:26.223Z</time>
      </trkpt>
      <trkpt lat="46.476140320301056" lon="10.452701887115836">
        <ele>1719.4</ele>
        <time>2025-10-07T06:59:27.588Z</time>
      </trkpt>
      <trkpt lat="46.47611123509705" lon="10.452702809125185">
        <ele>1719.63</ele>
        <time>2025-10-07T06:59:28.955Z</time>
      </trkpt>
      <trkpt lat="46.47608743049204" lon="10.452701970934868">
        <ele>1719.94</ele>
        <time>2025-10-07T06:59:30.323Z</time>
      </trkpt>
      <trkpt lat="46.476085083559155" lon="10.452695097774267">
        <ele>1720.18</ele>
        <time>2025-10-07T06:59:31.692Z</time>
      </trkpt>
      <trkpt lat="46.476089945062995" lon="10.452696857973933">
        <ele>1720.48</ele>
        <time>2025-10-07T06:59:33.061Z</time>
      </trkpt>
      <trkpt lat="46.47607200779021" lon="10.452690739184618">
        <ele>1720.88</ele>
        <time>2025-10-07T06:59:34.431Z</time>
      </trkpt>
      <trkpt lat="46.4760653860867" lon="10.452687218785286">
        <ele>1721.24</ele>
        <time>2025-10-07T06:59:35.802Z</time>
      </trkpt>
      <trkpt lat="46.47605633363128" lon="10.452685039490461">
        <ele>1721.66</ele>
        <time>2025-10-07T06:59:37.174Z</time>
      </trkpt>
      <trkpt lat="46.47603529505432" lon="10.452649164944887">
        <ele>1722.0</ele>
        <time>2025-10-07T06:59:38.548Z</time>
      </trkpt>
      <trkpt lat="46.476023476570845" lon="10.452655283734202">
        <ele>1722.45</ele>
        <time>2025-10-07T06:59:39.923Z</time>
      </trkpt>
      <trkpt lat="46.47602682933211" lon="10.452654529362917">
        <ele>1722.82</ele>
        <time>2025-10-07T06:59:41.298Z</time>
      </trkpt>
      <trkpt lat="46.47604191675782" lon="10.452648159116507">
        <ele>1723.11</ele>
        <time>2025-10-07T06:59:42.674Z</time>
      </trkpt>
      <trkpt lat="46.47601752541959" lon="10.452624689787626">
        <ele>1723.52</ele>
        <time>2025-10-07T06:59:44.052Z</time>
      </trkpt>
      <trkpt lat="46.47602817043662" lon="10.452628377825022">
        <ele>1723.84</ele>
        <time>2025-10-07T06:59:45.431Z</time>
      </trkpt>
      <trkpt lat="46.47601685486734" lon="10.452622761949897">
        <ele>1724.22</ele>
        <time>2025-10-07T06:59:46.811Z</time>
      </trkpt>
      <trkpt lat="46.47601677104831" lon="10.452615972608328">
        <ele>1724.53</ele>
        <time>2025-10-07T06:59:48.191Z</time>
      </trkpt>
      <trkpt lat="46.47600218653679" lon="10.452602645382285">
        <ele>1724.86</ele>
        <time>2025-10-07T06:59:49.572Z</time>
      </trkpt>
      <trkpt lat="46.4759255759418" lon="10.452558472752571">
        <ele>1725.31</ele>
        <time>2025-10-07T06:59:50.959Z</time>
      </trkpt>
      <trkpt lat="46.47585801780224" lon="10.452499631792307">
        <ele>1725.64</ele>
        <time>2025-10-07T06:59:52.352Z</time>
      </trkpt>
      <trkpt lat="46.475794818252325" lon="10.452435174956918">
        <ele>1725.88</ele>
        <time>2025-10-07T06:59:53.751Z</time>
      </trkpt>
      <trkpt lat="46.47574000060558" lon="10.452375244349241">
        <ele>1726.09</ele>
        <time>2025-10-07T06:59:55.154Z</time>
      </trkpt>
      <trkpt lat="46.475701024755836" lon="10.452323779463768">
        <ele>1726.2</ele>
        <time>2025-10-07T06:59:56.561Z</time>
      </trkpt>
      <trkpt lat="46.475588120520115" lon="10.452242139726877">
        <ele>1726.48</ele>
        <time>2025-10-07T06:59:57.977Z</time>
      </trkpt>
      <trkpt lat="46.47547856904566" lon="10.452155722305179">
        <ele>1726.63</ele>
        <time>2025-10-07T06:59:59.402Z</time>
      </trkpt>
      <trkpt lat="46.47541880607605" lon="10.45207659713924">
        <ele>1726.56</ele>
        <time>2025-10-07T07:00:00.833Z</time>
      </trkpt>
      <trkpt lat="46.475411262363195" lon="10.452066538855433">
        <ele>1726.51</ele>
        <time>2025-10-07T07:00:02.265Z</time>
      </trkpt>
      <trkpt lat="46.475395672023296" lon="10.452030161395669">
        <ele>1726.37</ele>
        <time>2025-10-07T07:00:03.699Z</time>
      </trkpt>
      <trkpt lat="46.475336914882064" lon="10.451911222189665">
        <ele>1726.04</ele>
        <time>2025-10-07T07:00:05.140Z</time>
      </trkpt>
      <trkpt lat="46.475326269865036" lon="10.451887166127563">
        <ele>1725.96</ele>
        <time>2025-10-07T07:00:06.582Z</time>
      </trkpt>
      <trkpt lat="46.47524840198457" lon="10.451734531670809">
        <ele>1725.77</ele>
        <time>2025-10-07T07:00:08.034Z</time>
      </trkpt>
      <trkpt lat="46.475188471376896" lon="10.45164568349719">
        <ele>1725.77</ele>
        <time>2025-10-07T07:00:09.492Z</time>
      </trkpt>
      <trkpt lat="46.47509937174618" lon="10.451595392078161">
        <ele>1726.04</ele>
        <time>2025-10-07T07:00:10.957Z</time>
      </trkpt>
      <trkpt lat="46.47497464902699" lon="10.451370673254132">
        <ele>1725.83</ele>
        <time>2025-10-07T07:00:12.436Z</time>
      </trkpt>
      <trkpt lat="46.474936762824655" lon="10.45126749202609">
        <ele>1725.77</ele>
        <time>2025-10-07T07:00:13.921Z</time>
      </trkpt>
      <trkpt lat="46.474896697327495" lon="10.451212590560317">
        <ele>1725.98</ele>
        <time>2025-10-07T07:00:15.410Z</time>
      </trkpt>
      <trkpt lat="46.47485696710646" lon="10.451164310798049">
        <ele>1726.26</ele>
        <time>2025-10-07T07:00:16.902Z</time>
      </trkpt>
      <trkpt lat="46.4747013989836" lon="10.451124412938952">
        <ele>1727.23</ele>
        <time>2025-10-07T07:00:18.406Z</time>
      </trkpt>
      <trkpt lat="46.47466041147709" lon="10.451078228652477">
        <ele>1727.62</ele>
        <time>2025-10-07T07:00:19.913Z</time>
      </trkpt>
      <trkpt lat="46.474648425355554" lon="10.451047383248806">
        <ele>1727.93</ele>
        <time>2025-10-07T07:00:21.422Z</time>
      </trkpt>
      <trkpt lat="46.47459612227976" lon="10.451005892828107">
        <ele>1728.39</ele>
        <time>2025-10-07T07:00:22.935Z</time>
      </trkpt>
      <trkpt lat="46.47452211007476" lon="10.450953003019094">
        <ele>1728.9</ele>
        <time>2025-10-07T07:00:24.454Z</time>
      </trkpt>
      <trkpt lat="46.474433932453394" lon="10.450913859531283">
        <ele>1729.49</ele>
        <time>2025-10-07T07:00:25.980Z</time>
      </trkpt>
      <trkpt lat="46.474420269951224" lon="10.450902795419097">
        <ele>1729.8</ele>
        <time>2025-10-07T07:00:27.507Z</time>
      </trkpt>
      <trkpt lat="46.47432882338762" lon="10.450812941417098">
        <ele>1730.03</ele>
        <time>2025-10-07T07:00:29.042Z</time>
      </trkpt>
      <trkpt lat="46.47428087890148" lon="10.450724260881543">
        <ele>1730.09</ele>
        <time>2025-10-07T07:00:30.582Z</time>
      </trkpt>
      <trkpt lat="46.47426059469581" lon="10.450683105736971">
        <ele>1730.12</ele>
        <time>2025-10-07T07:00:32.125Z</time>
      </trkpt>
      <trkpt lat="46.474205777049065" lon="10.450606914237142">
        <ele>1730.13</ele>
        <time>2025-10-07T07:00:33.673Z</time>
      </trkpt>
      <trkpt lat="46.47415372543037" lon="10.450521586462855">
        <ele>1729.99</ele>
        <time>2025-10-07T07:00:35.227Z</time>
      </trkpt>
      <trkpt lat="46.47414366714656" lon="10.450512869283557">
        <ele>1729.91</ele>
        <time>2025-10-07T07:00:36.782Z</time>
      </trkpt>
      <trkpt lat="46.474091028794646" lon="10.450496524572372">
        <ele>1729.84</ele>
        <time>2025-10-07T07:00:38.341Z</time>
      </trkpt>
      <trkpt lat="46.47407904267311" lon="10.450489232316613">
        <ele>1729.65</ele>
        <time>2025-10-07T07:00:39.901Z</time>
      </trkpt>
      <trkpt lat="46.473996229469776" lon="10.45043139718473">
        <ele>1729.41</ele>
        <time>2025-10-07T07:00:41.467Z</time>
      </trkpt>
      <trkpt lat="46.47395549342036" lon="10.450403233990073">
        <ele>1729.14</ele>
        <time>2025-10-07T07:00:43.036Z</time>
      </trkpt>
      <trkpt lat="46.47397007793188" lon="10.450394097715616">
        <ele>1728.81</ele>
        <time>2025-10-07T07:00:44.607Z</time>
      </trkpt>
      <trkpt lat="46.473988350480795" lon="10.450372388586402">
        <ele>1728.41</ele>
        <time>2025-10-07T07:00:46.179Z</time>
      </trkpt>
      <trkpt lat="46.47394032217562" lon="10.450288904830813">
        <ele>1727.92</ele>
        <time>2025-10-07T07:00:47.757Z</time>
      </trkpt>
      <trkpt lat="46.4738966524601" lon="10.450198464095592">
        <ele>1727.43</ele>
        <time>2025-10-07T07:00:49.340Z</time>
      </trkpt>
      <trkpt lat="46.47378006018698" lon="10.4501289781183">
        <ele>1727.32</ele>
        <time>2025-10-07T07:00:50.932Z</time>
      </trkpt>
      <trkpt lat="46.473754746839404" lon="10.45011330395937">
        <ele>1727.14</ele>
        <time>2025-10-07T07:00:52.526Z</time>
      </trkpt>
      <trkpt lat="46.47375105880201" lon="10.4500996414572">
        <ele>1726.92</ele>
        <time>2025-10-07T07:00:54.121Z</time>
      </trkpt>
      <trkpt lat="46.47370043210685" lon="10.450057564303279">
        <ele>1726.79</ele>
        <time>2025-10-07T07:00:55.720Z</time>
      </trkpt>
      <trkpt lat="46.47368484176695" lon="10.4500444047153">
        <ele>1726.68</ele>
        <time>2025-10-07T07:00:57.320Z</time>
      </trkpt>
      <trkpt lat="46.47359465248883" lon="10.44996821321547">
        <ele>1726.64</ele>
        <time>2025-10-07T07:00:58.928Z</time>
      </trkpt>
      <trkpt lat="46.47350639104843" lon="10.449939128011465">
        <ele>1726.66</ele>
        <time>2025-10-07T07:01:00.542Z</time>
      </trkpt>
      <trkpt lat="46.47342139855027" lon="10.449915574863553">
        <ele>1726.71</ele>
        <time>2025-10-07T07:01:02.162Z</time>
      </trkpt>
      <trkpt lat="46.47339181043208" lon="10.449880119413137">
        <ele>1726.65</ele>
        <time>2025-10-07T07:01:03.785Z</time>
      </trkpt>
      <trkpt lat="46.47337730973959" lon="10.449875425547361">
        <ele>1726.65</ele>
        <time>2025-10-07T07:01:05.409Z</time>
      </trkpt>
      <trkpt lat="46.47334470413625" lon="10.449858410283923">
        <ele>1726.66</ele>
        <time>2025-10-07T07:01:07.036Z</time>
      </trkpt>
      <trkpt lat="46.47332115098834" lon="10.449852962046862">
        <ele>1726.68</ele>
        <time>2025-10-07T07:01:08.664Z</time>
      </trkpt>
      <trkpt lat="46.47325040772557" lon="10.449832174926996">
        <ele>1726.71</ele>
        <time>2025-10-07T07:01:10.297Z</time>
      </trkpt>
      <trkpt lat="46.47322056815028" lon="10.449805771932006">
        <ele>1726.68</ele>
        <time>2025-10-07T07:01:11.933Z</time>
      </trkpt>
      <trkpt lat="46.47320841439068" lon="10.449773333966732">
        <ele>1726.61</ele>
        <time>2025-10-07T07:01:13.571Z</time>
      </trkpt>
      <trkpt lat="46.47322157397866" lon="10.44975564815104">
        <ele>1726.54</ele>
        <time>2025-10-07T07:01:15.210Z</time>
      </trkpt>
      <trkpt lat="46.473207995295525" lon="10.44973997399211">
        <ele>1726.51</ele>
        <time>2025-10-07T07:01:16.850Z</time>
      </trkpt>
      <trkpt lat="46.47322635166347" lon="10.449733519926667">
        <ele>1726.46</ele>
        <time>2025-10-07T07:01:18.492Z</time>
      </trkpt>
      <trkpt lat="46.47322978824377" lon="10.449729831889272">
        <ele>1726.44</ele>
        <time>2025-10-07T07:01:20.134Z</time>
      </trkpt>
      <trkpt lat="46.473228530958295" lon="10.449736956506968">
        <ele>1726.44</ele>
        <time>2025-10-07T07:01:21.776Z</time>
      </trkpt>
      <trkpt lat="46.47321838885546" lon="10.44972874224186">
        <ele>1726.42</ele>
        <time>2025-10-07T07:01:23.419Z</time>
      </trkpt>
      <trkpt lat="46.47320011630654" lon="10.449725138023496">
        <ele>1726.41</ele>
        <time>2025-10-07T07:01:25.063Z</time>
      </trkpt>
      <trkpt lat="46.47319466806948" lon="10.449715917930007">
        <ele>1726.38</ele>
        <time>2025-10-07T07:01:26.708Z</time>
      </trkpt>
      <trkpt lat="46.4731817599386" lon="10.449694208800793">
        <ele>1726.31</ele>
        <time>2025-10-07T07:01:28.355Z</time>
      </trkpt>
      <trkpt lat="46.473180586472154" lon="10.449691442772746">
        <ele>1726.28</ele>
        <time>2025-10-07T07:01:30.002Z</time>
      </trkpt>
      <trkpt lat="46.47319349460304" lon="10.449683731421828">
        <ele>1726.2</ele>
        <time>2025-10-07T07:01:31.650Z</time>
      </trkpt>
      <trkpt lat="46.473184525966644" lon="10.449702758342028">
        <ele>1726.21</ele>
        <time>2025-10-07T07:01:33.299Z</time>
      </trkpt>
      <trkpt lat="46.473179664462805" lon="10.449702674522996">
        <ele>1726.15</ele>
        <time>2025-10-07T07:01:34.948Z</time>
      </trkpt>
      <trkpt lat="46.473187543451786" lon="10.449692783877254">
        <ele>1726.03</ele>
        <time>2025-10-07T07:01:36.598Z</time>
      </trkpt>
      <trkpt lat="46.47318662144244" lon="10.449692280963063">
        <ele>1725.92</ele>
        <time>2025-10-07T07:01:38.248Z</time>
      </trkpt>
      <trkpt lat="46.47318427450955" lon="10.449689850211143">
        <ele>1725.79</ele>
        <time>2025-10-07T07:01:39.898Z</time>
      </trkpt>
      <trkpt lat="46.47318611852825" lon="10.44971558265388">
        <ele>1725.69</ele>
        <time>2025-10-07T07:01:41.549Z</time>
      </trkpt>
      <trkpt lat="46.47318720817566" lon="10.449719773605466">
        <ele>1725.5</ele>
        <time>2025-10-07T07:01:43.201Z</time>
      </trkpt>
      <trkpt lat="46.47315971553326" lon="10.449730334803462">
        <ele>1725.32</ele>
        <time>2025-10-07T07:01:44.855Z</time>
      </trkpt>
      <trkpt lat="46.47315787151456" lon="10.449731340631843">
        <ele>1725.05</ele>
        <time>2025-10-07T07:01:46.509Z</time>
      </trkpt>
      <trkpt lat="46.47318486124277" lon="10.449698232114315">
        <ele>1724.61</ele>
        <time>2025-10-07T07:01:48.165Z</time>
      </trkpt>
      <trkpt lat="46.47313398309052" lon="10.449677361175418">
        <ele>1724.26</ele>
        <time>2025-10-07T07:01:49.825Z</time>
      </trkpt>
      <trkpt lat="46.47311118431389" lon="10.449663531035185">
        <ele>1723.85</ele>
        <time>2025-10-07T07:01:51.487Z</time>
      </trkpt>
      <trkpt lat="46.47300448268652" lon="10.449560517445207">
        <ele>1723.3</ele>
        <time>2025-10-07T07:01:53.158Z</time>
      </trkpt>
      <trkpt lat="46.47292720153928" lon="10.449454989284277">
        <ele>1722.68</ele>
        <time>2025-10-07T07:01:54.837Z</time>
      </trkpt>
      <trkpt lat="46.4729259442538" lon="10.449446104466915">
        <ele>1722.17</ele>
        <time>2025-10-07T07:01:56.516Z</time>
      </trkpt>
      <trkpt lat="46.47291211411357" lon="10.449434034526348">
        <ele>1721.67</ele>
        <time>2025-10-07T07:01:58.196Z</time>
      </trkpt>
      <trkpt lat="46.472853776067495" lon="10.44937552884221">
        <ele>1721.13</ele>
        <time>2025-10-07T07:01:59.881Z</time>
      </trkpt>
      <trkpt lat="46.47280306555331" lon="10.449326243251562">
        <ele>1720.6</ele>
        <time>2025-10-07T07:02:01.571Z</time>
      </trkpt>
      <trkpt lat="46.47279636003077" lon="10.449318028986454">
        <ele>1720.06</ele>
        <time>2025-10-07T07:02:03.261Z</time>
      </trkpt>
      <trkpt lat="46.472777081653476" lon="10.449306461960077">
        <ele>1719.53</ele>
        <time>2025-10-07T07:02:04.953Z</time>
      </trkpt>
      <trkpt lat="46.47274355404079" lon="10.449270587414503">
        <ele>1718.97</ele>
        <time>2025-10-07T07:02:06.648Z</time>
      </trkpt>
      <trkpt lat="46.4727100264281" lon="10.449218032881618">
        <ele>1718.38</ele>
        <time>2025-10-07T07:02:08.346Z</time>
      </trkpt>
      <trkpt lat="46.47265068255365" lon="10.449165226891637">
        <ele>1717.84</ele>
        <time>2025-10-07T07:02:10.049Z</time>
      </trkpt>
      <trkpt lat="46.47255839779973" lon="10.449023908004165">
        <ele>1717.22</ele>
        <time>2025-10-07T07:02:11.762Z</time>
      </trkpt>
      <trkpt lat="46.47254406474531" lon="10.44900119304657">
        <ele>1716.69</ele>
        <time>2025-10-07T07:02:13.476Z</time>
      </trkpt>
      <trkpt lat="46.472490252926946" lon="10.44896062463522">
        <ele>1716.23</ele>
        <time>2025-10-07T07:02:15.195Z</time>
      </trkpt>
      <trkpt lat="46.47245169617236" lon="10.448909075930715">
        <ele>1715.78</ele>
        <time>2025-10-07T07:02:16.918Z</time>
      </trkpt>
      <trkpt lat="46.47241766564548" lon="10.448821652680635">
        <ele>1715.28</ele>
        <time>2025-10-07T07:02:18.645Z</time>
      </trkpt>
      <trkpt lat="46.47239143028855" lon="10.448762560263276">
        <ele>1714.83</ele>
        <time>2025-10-07T07:02:20.376Z</time>
      </trkpt>
      <trkpt lat="46.472371062263846" lon="10.448695169761777">
        <ele>1714.42</ele>
        <time>2025-10-07T07:02:22.111Z</time>
      </trkpt>
      <trkpt lat="46.47228782996535" lon="10.448580924421549">
        <ele>1714.1</ele>
        <time>2025-10-07T07:02:23.854Z</time>
      </trkpt>
      <trkpt lat="46.472211638465524" lon="10.448545217514038">
        <ele>1713.97</ele>
        <time>2025-10-07T07:02:25.602Z</time>
      </trkpt>
      <trkpt lat="46.47221339866519" lon="10.448540272191167">
        <ele>1713.75</ele>
        <time>2025-10-07T07:02:27.351Z</time>
      </trkpt>
      <trkpt lat="46.47221004590392" lon="10.44852769933641">
        <ele>1713.59</ele>
        <time>2025-10-07T07:02:29.100Z</time>
      </trkpt>
      <trkpt lat="46.47218548692763" lon="10.448482353240252">
        <ele>1713.51</ele>
        <time>2025-10-07T07:02:30.852Z</time>
      </trkpt>
      <trkpt lat="46.472172159701586" lon="10.448440024629235">
        <ele>1713.45</ele>
        <time>2025-10-07T07:02:32.607Z</time>
      </trkpt>
      <trkpt lat="46.47215807810426" lon="10.44836207292974">
        <ele>1713.4</ele>
        <time>2025-10-07T07:02:34.366Z</time>
      </trkpt>
      <trkpt lat="46.472131088376045" lon="10.44831027276814">
        <ele>1713.47</ele>
        <time>2025-10-07T07:02:36.128Z</time>
      </trkpt>
      <trkpt lat="46.47211038507521" lon="10.448252940550447">
        <ele>1713.6</ele>
        <time>2025-10-07T07:02:37.893Z</time>
      </trkpt>
      <trkpt lat="46.47207870148122" lon="10.44820281676948">
        <ele>1713.82</ele>
        <time>2025-10-07T07:02:39.661Z</time>
      </trkpt>
      <trkpt lat="46.472080294042826" lon="10.448190495371819">
        <ele>1714.02</ele>
        <time>2025-10-07T07:02:41.430Z</time>
      </trkpt>
      <trkpt lat="46.472076857462525" lon="10.448168450966477">
        <ele>1714.26</ele>
        <time>2025-10-07T07:02:43.200Z</time>
      </trkpt>
      <trkpt lat="46.472044587135315" lon="10.448110867291689">
        <ele>1714.61</ele>
        <time>2025-10-07T07:02:44.974Z</time>
      </trkpt>
      <trkpt lat="46.47203226573765" lon="10.448023611679673">
        <ele>1714.92</ele>
        <time>2025-10-07T07:02:46.752Z</time>
      </trkpt>
      <trkpt lat="46.472014747560024" lon="10.44799410738051">
        <ele>1715.32</ele>
        <time>2025-10-07T07:02:48.532Z</time>
      </trkpt>
      <trkpt lat="46.47199748083949" lon="10.447930069640279">
        <ele>1715.73</ele>
        <time>2025-10-07T07:02:50.315Z</time>
      </trkpt>
      <trkpt lat="46.471988931298256" lon="10.447930404916406">
        <ele>1716.24</ele>
        <time>2025-10-07T07:02:52.099Z</time>
      </trkpt>
      <trkpt lat="46.47197141312063" lon="10.447924453765154">
        <ele>1716.82</ele>
        <time>2025-10-07T07:02:53.884Z</time>
      </trkpt>
      <trkpt lat="46.471868734806776" lon="10.447878604754806">
        <ele>1717.55</ele>
        <time>2025-10-07T07:02:55.677Z</time>
      </trkpt>
      <trkpt lat="46.471845265477896" lon="10.447861589491367">
        <ele>1718.17</ele>
        <time>2025-10-07T07:02:57.472Z</time>
      </trkpt>
      <trkpt lat="46.47183386608958" lon="10.447858236730099">
        <ele>1718.81</ele>
        <time>2025-10-07T07:02:59.268Z</time>
      </trkpt>
      <trkpt lat="46.47181894630194" lon="10.44785781763494">
        <ele>1719.48</ele>
        <time>2025-10-07T07:03:01.065Z</time>
      </trkpt>
      <trkpt lat="46.47169757634401" lon="10.447804005816579">
        <ele>1720.29</ele>
        <time>2025-10-07T07:03:02.871Z</time>
      </trkpt>
      <trkpt lat="46.471615601330996" lon="10.447775004431605">
        <ele>1721.05</ele>
        <time>2025-10-07T07:03:04.683Z</time>
      </trkpt>
      <trkpt lat="46.471600849181414" lon="10.447776429355145">
        <ele>1721.78</ele>
        <time>2025-10-07T07:03:06.496Z</time>
      </trkpt>
      <trkpt lat="46.47157151252031" lon="10.447811633348465">
        <ele>1722.57</ele>
        <time>2025-10-07T07:03:08.312Z</time>
      </trkpt>
      <trkpt lat="46.4715878572315" lon="10.447839545086026">
        <ele>1723.31</ele>
        <time>2025-10-07T07:03:10.129Z</time>
      </trkpt>
      <trkpt lat="46.47161484695971" lon="10.447875754907727">
        <ele>1724.05</ele>
        <time>2025-10-07T07:03:11.949Z</time>
      </trkpt>
      <trkpt lat="46.47167704068124" lon="10.447902157902718">
        <ele>1724.73</ele>
        <time>2025-10-07T07:03:13.774Z</time>
      </trkpt>
      <trkpt lat="46.47170092910528" lon="10.44797164388001">
        <ele>1725.52</ele>
        <time>2025-10-07T07:03:15.603Z</time>
      </trkpt>
      <trkpt lat="46.47179815918207" lon="10.448027634993196">
        <ele>1726.18</ele>
        <time>2025-10-07T07:03:17.439Z</time>
      </trkpt>
      <trkpt lat="46.471825651824474" lon="10.44818370603025">
        <ele>1726.96</ele>
        <time>2025-10-07T07:03:19.283Z</time>
      </trkpt>
      <trkpt lat="46.471855910494924" lon="10.448301807045937">
        <ele>1727.81</ele>
        <time>2025-10-07T07:03:21.133Z</time>
      </trkpt>
      <trkpt lat="46.47185909561813" lon="10.448404485359788">
        <ele>1728.7</ele>
        <time>2025-10-07T07:03:22.988Z</time>
      </trkpt>
      <trkpt lat="46.47186353802681" lon="10.448427200317383">
        <ele>1729.47</ele>
        <time>2025-10-07T07:03:24.844Z</time>
      </trkpt>
      <trkpt lat="46.471870159730315" lon="10.448490399867296">
        <ele>1730.28</ele>
        <time>2025-10-07T07:03:26.704Z</time>
      </trkpt>
      <trkpt lat="46.471898909658194" lon="10.44855603016913">
        <ele>1731.02</ele>
        <time>2025-10-07T07:03:28.567Z</time>
      </trkpt>
      <trkpt lat="46.471926318481565" lon="10.448600202798843">
        <ele>1731.69</ele>
        <time>2025-10-07T07:03:30.433Z</time>
      </trkpt>
      <trkpt lat="46.47194065153599" lon="10.448653679341078">
        <ele>1732.48</ele>
        <time>2025-10-07T07:03:32.302Z</time>
      </trkpt>
      <trkpt lat="46.471933694556355" lon="10.448666755110025">
        <ele>1733.2</ele>
        <time>2025-10-07T07:03:34.172Z</time>
      </trkpt>
      <trkpt lat="46.47193050943315" lon="10.448680920526385">
        <ele>1733.89</ele>
        <time>2025-10-07T07:03:36.043Z</time>
      </trkpt>
      <trkpt lat="46.471934616565704" lon="10.448698103427887">
        <ele>1734.53</ele>
        <time>2025-10-07T07:03:37.915Z</time>
      </trkpt>
      <trkpt lat="46.47193771786988" lon="10.448717884719372">
        <ele>1735.13</ele>
        <time>2025-10-07T07:03:39.788Z</time>
      </trkpt>
      <trkpt lat="46.47191449999809" lon="10.448749400675297">
        <ele>1735.79</ele>
        <time>2025-10-07T07:03:41.663Z</time>
      </trkpt>
      <trkpt lat="46.47193059325218" lon="10.448749819770455">
        <ele>1736.22</ele>
        <time>2025-10-07T07:03:43.539Z</time>
      </trkpt>
      <trkpt lat="46.47188792936504" lon="10.448801955208182">
        <ele>1736.87</ele>
        <time>2025-10-07T07:03:45.419Z</time>
      </trkpt>
      <trkpt lat="46.47189589217305" lon="10.448811175301671">
        <ele>1737.22</ele>
        <time>2025-10-07T07:03:47.300Z</time>
      </trkpt>
      <trkpt lat="46.47195096127689" lon="10.448848893865943">
        <ele>1737.44</ele>
        <time>2025-10-07T07:03:49.185Z</time>
      </trkpt>
      <trkpt lat="46.47199111059308" lon="10.448892312124372">
        <ele>1737.61</ele>
        <time>2025-10-07T07:03:51.074Z</time>
      </trkpt>
      <trkpt lat="46.4719901047647" lon="10.448892815038562">
        <ele>1737.76</ele>
        <time>2025-10-07T07:03:52.963Z</time>
      </trkpt>
      <trkpt lat="46.47196311503649" lon="10.448884014040232">
        <ele>1737.91</ele>
        <time>2025-10-07T07:03:54.854Z</time>
      </trkpt>
      <trkpt lat="46.471968311816454" lon="10.448875296860933">
        <ele>1737.87</ele>
        <time>2025-10-07T07:03:56.745Z</time>
      </trkpt>
      <trkpt lat="46.47193386219442" lon="10.448818299919367">
        <ele>1737.81</ele>
        <time>2025-10-07T07:03:58.640Z</time>
      </trkpt>
      <trkpt lat="46.47189086303115" lon="10.448780246078968">
        <ele>1737.73</ele>
        <time>2025-10-07T07:04:00.539Z</time>
      </trkpt>
      <trkpt lat="46.471842834725976" lon="10.448712101206183">
        <ele>1737.52</ele>
        <time>2025-10-07T07:04:02.442Z</time>
      </trkpt>
      <trkpt lat="46.47181609645486" lon="10.448595089837909">
        <ele>1737.1</ele>
        <time>2025-10-07T07:04:04.352Z</time>
      </trkpt>
      <trkpt lat="46.47181659936905" lon="10.4485834389925">
        <ele>1736.83</ele>
        <time>2025-10-07T07:04:06.262Z</time>
      </trkpt>
      <trkpt lat="46.47182296961546" lon="10.448580253869295">
        <ele>1736.52</ele>
        <time>2025-10-07T07:04:08.173Z</time>
      </trkpt>
      <trkpt lat="46.47180478088558" lon="10.44853356666863">
        <ele>1736.21</ele>
        <time>2025-10-07T07:04:10.086Z</time>
      </trkpt>
      <trkpt lat="46.47179028019309" lon="10.448502637445927">
        <ele>1735.88</ele>
        <time>2025-10-07T07:04:12.001Z</time>
      </trkpt>
      <trkpt lat="46.47174057550728" lon="10.448396438732743">
        <ele>1735.54</ele>
        <time>2025-10-07T07:04:13.922Z</time>
      </trkpt>
      <trkpt lat="46.471718698740005" lon="10.448297364637256">
        <ele>1735.06</ele>
        <time>2025-10-07T07:04:15.849Z</time>
      </trkpt>
      <trkpt lat="46.4717104844749" lon="10.448278924450278">
        <ele>1734.62</ele>
        <time>2025-10-07T07:04:17.777Z</time>
      </trkpt>
      <trkpt lat="46.47170461714268" lon="10.44827071018517">
        <ele>1734.17</ele>
        <time>2025-10-07T07:04:19.705Z</time>
      </trkpt>
      <trkpt lat="46.47163337096572" lon="10.448187394067645">
        <ele>1733.75</ele>
        <time>2025-10-07T07:04:21.640Z</time>
      </trkpt>
      <trkpt lat="46.471545696258545" lon="10.448102485388517">
        <ele>1733.28</ele>
        <time>2025-10-07T07:04:23.582Z</time>
      </trkpt>
      <trkpt lat="46.47148828022182" lon="10.448060324415565">
        <ele>1732.79</ele>
        <time>2025-10-07T07:04:25.529Z</time>
      </trkpt>
      <trkpt lat="46.47145416587591" lon="10.448021432384849">
        <ele>1732.23</ele>
        <time>2025-10-07T07:04:27.479Z</time>
      </trkpt>
      <trkpt lat="46.47140756249428" lon="10.447966028004885">
        <ele>1731.61</ele>
        <time>2025-10-07T07:04:29.433Z</time>
      </trkpt>
      <trkpt lat="46.47132843732834" lon="10.447860499843955">
        <ele>1730.89</ele>
        <time>2025-10-07T07:04:31.395Z</time>
      </trkpt>
      <trkpt lat="46.47121905349195" lon="10.447764275595546">
        <ele>1730.21</ele>
        <time>2025-10-07T07:04:33.366Z</time>
      </trkpt>
      <trkpt lat="46.47116155363619" lon="10.447654388844967">
        <ele>1729.44</ele>
        <time>2025-10-07T07:04:35.344Z</time>
      </trkpt>
      <trkpt lat="46.471158703789115" lon="10.447647264227271">
        <ele>1728.77</ele>
        <time>2025-10-07T07:04:37.322Z</time>
      </trkpt>
      <trkpt lat="46.47114587947726" lon="10.447628404945135">
        <ele>1728.08</ele>
        <time>2025-10-07T07:04:39.302Z</time>
      </trkpt>
      <trkpt lat="46.47112584672868" lon="10.44758666306734">
        <ele>1727.37</ele>
        <time>2025-10-07T07:04:41.284Z</time>
      </trkpt>
      <trkpt lat="46.47112232632935" lon="10.44756704941392">
        <ele>1726.67</ele>
        <time>2025-10-07T07:04:43.267Z</time>
      </trkpt>
      <trkpt lat="46.47112475708127" lon="10.447528744116426">
        <ele>1725.94</ele>
        <time>2025-10-07T07:04:45.252Z</time>
      </trkpt>
      <trkpt lat="46.471122074872255" lon="10.447486583143473">
        <ele>1725.25</ele>
        <time>2025-10-07T07:04:47.239Z</time>
      </trkpt>
      <trkpt lat="46.47111746482551" lon="10.447464371100068">
        <ele>1724.62</ele>
        <time>2025-10-07T07:04:49.227Z</time>
      </trkpt>
      <trkpt lat="46.47110899910331" lon="10.447444589808583">
        <ele>1724.05</ele>
        <time>2025-10-07T07:04:51.217Z</time>
      </trkpt>
      <trkpt lat="46.4710574503988" lon="10.447367560118437">
        <ele>1723.48</ele>
        <time>2025-10-07T07:04:53.212Z</time>
      </trkpt>
      <trkpt lat="46.47100372239947" lon="10.447249123826623">
        <ele>1722.92</ele>
        <time>2025-10-07T07:04:55.214Z</time>
      </trkpt>
      <trkpt lat="46.47090096026659" lon="10.447157006710768">
        <ele>1722.49</ele>
        <time>2025-10-07T07:04:57.224Z</time>
      </trkpt>
      <trkpt lat="46.47088344208896" lon="10.447103194892406">
        <ele>1722.05</ele>
        <time>2025-10-07T07:04:59.237Z</time>
      </trkpt>
      <trkpt lat="46.47091059945524" lon="10.447041755542159">
        <ele>1721.59</ele>
        <time>2025-10-07T07:05:01.254Z</time>
      </trkpt>
      <trkpt lat="46.470914874225855" lon="10.447016106918454">
        <ele>1721.31</ele>
        <time>2025-10-07T07:05:03.272Z</time>
      </trkpt>
      <trkpt lat="46.4708745572716" lon="10.44699682854116">
        <ele>1721.17</ele>
        <time>2025-10-07T07:05:05.293Z</time>
      </trkpt>
      <trkpt lat="46.470727203413844" lon="10.44696313329041">
        <ele>1721.28</ele>
        <time>2025-10-07T07:05:07.325Z</time>
      </trkpt>
      <trkpt lat="46.47071831859648" lon="10.446946453303099">
        <ele>1721.23</ele>
        <time>2025-10-07T07:05:09.358Z</time>
      </trkpt>
      <trkpt lat="46.4706898201257" lon="10.446929354220629">
        <ele>1721.26</ele>
        <time>2025-10-07T07:05:11.393Z</time>
      </trkpt>
      <trkpt lat="46.47067188285291" lon="10.446944776922464">
        <ele>1721.4</ele>
        <time>2025-10-07T07:05:13.430Z</time>
      </trkpt>
      <trkpt lat="46.470647156238556" lon="10.446944274008274">
        <ele>1721.55</ele>
        <time>2025-10-07T07:05:15.468Z</time>
      </trkpt>
      <trkpt lat="46.470612874254584" lon="10.446923235431314">
        <ele>1721.71</ele>
        <time>2025-10-07T07:05:17.509Z</time>
      </trkpt>
      <trkpt lat="46.47060248069465" lon="10.44691284187138">
        <ele>1721.86</ele>
        <time>2025-10-07T07:05:19.551Z</time>
      </trkpt>
      <trkpt lat="46.470506424084306" lon="10.446866322308779">
        <ele>1722.11</ele>
        <time>2025-10-07T07:05:21.600Z</time>
      </trkpt>
      <trkpt lat="46.47046987898648" lon="10.446846289560199">
        <ele>1722.31</ele>
        <time>2025-10-07T07:05:23.652Z</time>
      </trkpt>
      <trkpt lat="46.470437441021204" lon="10.446832291781902">
        <ele>1722.52</ele>
        <time>2025-10-07T07:05:25.706Z</time>
      </trkpt>
      <trkpt lat="46.47036728449166" lon="10.446758782491088">
        <ele>1722.67</ele>
        <time>2025-10-07T07:05:27.767Z</time>
      </trkpt>
      <trkpt lat="46.47036820650101" lon="10.446736989542842">
        <ele>1722.83</ele>
        <time>2025-10-07T07:05:29.829Z</time>
      </trkpt>
      <trkpt lat="46.470315316691995" lon="10.446704551577568">
        <ele>1723.04</ele>
        <time>2025-10-07T07:05:31.895Z</time>
      </trkpt>
      <trkpt lat="46.470298720523715" lon="10.44669390656054">
        <ele>1723.25</ele>
        <time>2025-10-07T07:05:33.962Z</time>
      </trkpt>
      <trkpt lat="46.47027550265193" lon="10.44666264206171">
        <ele>1723.44</ele>
        <time>2025-10-07T07:05:36.031Z</time>
      </trkpt>
      <trkpt lat="46.470259074121714" lon="10.446641268208623">
        <ele>1723.63</ele>
        <time>2025-10-07T07:05:38.102Z</time>
      </trkpt>
      <trkpt lat="46.47025203332305" lon="10.446633556857705">
        <ele>1723.86</ele>
        <time>2025-10-07T07:05:40.174Z</time>
      </trkpt>
      <trkpt lat="46.47016100585461" lon="10.44659961014986">
        <ele>1724.16</ele>
        <time>2025-10-07T07:05:42.252Z</time>
      </trkpt>
      <trkpt lat="46.47010828368366" lon="10.446599191054702">
        <ele>1724.51</ele>
        <time>2025-10-07T07:05:44.334Z</time>
      </trkpt>
      <trkpt lat="46.4700576569885" lon="10.446558790281415">
        <ele>1724.75</ele>
        <time>2025-10-07T07:05:46.420Z</time>
      </trkpt>
      <trkpt lat="46.46996134892106" lon="10.44641487300396">
        <ele>1724.77</ele>
        <time>2025-10-07T07:05:48.516Z</time>
      </trkpt>
      <trkpt lat="46.469926899299026" lon="10.446353685110807">
        <ele>1724.97</ele>
        <time>2025-10-07T07:05:50.616Z</time>
      </trkpt>
      <trkpt lat="46.46988809108734" lon="10.446302723139524">
        <ele>1725.24</ele>
        <time>2025-10-07T07:05:52.720Z</time>
      </trkpt>
      <trkpt lat="46.46974140778184" lon="10.446229297667742">
        <ele>1725.64</ele>
        <time>2025-10-07T07:05:54.835Z</time>
      </trkpt>
      <trkpt lat="46.46963587962091" lon="10.446229465305805">
        <ele>1726.25</ele>
        <time>2025-10-07T07:05:56.957Z</time>
      </trkpt>
      <trkpt lat="46.46955415606499" lon="10.44625804759562">
        <ele>1726.87</ele>
        <time>2025-10-07T07:05:59.085Z</time>
      </trkpt>
      <trkpt lat="46.46950143389404" lon="10.446256790310144">
        <ele>1727.33</ele>
        <time>2025-10-07T07:06:01.217Z</time>
      </trkpt>
      <trkpt lat="46.4694014377892" lon="10.446251090615988">
        <ele>1727.89</ele>
        <time>2025-10-07T07:06:03.356Z</time>
      </trkpt>
      <trkpt lat="46.46938911639154" lon="10.446243714541197">
        <ele>1728.2</ele>
        <time>2025-10-07T07:06:05.496Z</time>
      </trkpt>
      <trkpt lat="46.46936430595815" lon="10.446196356788278">
        <ele>1728.43</ele>
        <time>2025-10-07T07:06:07.639Z</time>
      </trkpt>
      <trkpt lat="46.46935248747468" lon="10.446173558011651">
        <ele>1728.6</ele>
        <time>2025-10-07T07:06:09.784Z</time>
      </trkpt>
      <trkpt lat="46.46933555603027" lon="10.446155788376927">
        <ele>1728.72</ele>
        <time>2025-10-07T07:06:11.930Z</time>
      </trkpt>
      <trkpt lat="46.46934653632343" lon="10.446160901337862">
        <ele>1728.74</ele>
        <time>2025-10-07T07:06:14.077Z</time>
      </trkpt>
      <trkpt lat="46.4693358913064" lon="10.44617347419262">
        <ele>1728.76</ele>
        <time>2025-10-07T07:06:16.225Z</time>
      </trkpt>
      <trkpt lat="46.469340585172176" lon="10.44617204926908">
        <ele>1728.66</ele>
        <time>2025-10-07T07:06:18.373Z</time>
      </trkpt>
      <trkpt lat="46.469348799437284" lon="10.446073226630688">
        <ele>1728.33</ele>
        <time>2025-10-07T07:06:20.526Z</time>
      </trkpt>
      <trkpt lat="46.46935055963695" lon="10.445849010720849">
        <ele>1727.98</ele>
        <time>2025-10-07T07:06:22.690Z</time>
      </trkpt>
      <trkpt lat="46.46936556324363" lon="10.44566972181201">
        <ele>1727.49</ele>
        <time>2025-10-07T07:06:24.863Z</time>
      </trkpt>
      <trkpt lat="46.46933983080089" lon="10.445528654381633">
        <ele>1727.15</ele>
        <time>2025-10-07T07:06:27.043Z</time>
      </trkpt>
      <trkpt lat="46.469208654016256" lon="10.445399573072791">
        <ele>1727.06</ele>
        <time>2025-10-07T07:06:29.235Z</time>
      </trkpt>
      <trkpt lat="46.469161128625274" lon="10.445379707962275">
        <ele>1726.92</ele>
        <time>2025-10-07T07:06:31.430Z</time>
      </trkpt>
      <trkpt lat="46.46909734234214" lon="10.445317346602678">
        <ele>1726.65</ele>
        <time>2025-10-07T07:06:33.631Z</time>
      </trkpt>
      <trkpt lat="46.46903590299189" lon="10.445287255570292">
        <ele>1726.44</ele>
        <time>2025-10-07T07:06:35.836Z</time>
      </trkpt>
      <trkpt lat="46.46895040757954" lon="10.445261606946588">
        <ele>1726.28</ele>
        <time>2025-10-07T07:06:38.048Z</time>
      </trkpt>
      <trkpt lat="46.46887270733714" lon="10.445254314690828">
        <ele>1726.14</ele>
        <time>2025-10-07T07:06:40.265Z</time>
      </trkpt>
      <trkpt lat="46.46886155940592" lon="10.445258254185319">
        <ele>1725.91</ele>
        <time>2025-10-07T07:06:42.483Z</time>
      </trkpt>
      <trkpt lat="46.46882325410843" lon="10.445226654410362">
        <ele>1725.63</ele>
        <time>2025-10-07T07:06:44.704Z</time>
      </trkpt>
      <trkpt lat="46.468783440068364" lon="10.445180051028728">
        <ele>1725.32</ele>
        <time>2025-10-07T07:06:46.929Z</time>
      </trkpt>
      <trkpt lat="46.468778075650334" lon="10.445157922804356">
        <ele>1725.04</ele>
        <time>2025-10-07T07:06:49.155Z</time>
      </trkpt>
      <trkpt lat="46.46876273676753" lon="10.445146942511201">
        <ele>1724.79</ele>
        <time>2025-10-07T07:06:51.382Z</time>
      </trkpt>
      <trkpt lat="46.46873960271478" lon="10.445124646648765">
        <ele>1724.52</ele>
        <time>2025-10-07T07:06:53.611Z</time>
      </trkpt>
      <trkpt lat="46.46870305761695" lon="10.445114001631737">
        <ele>1724.28</ele>
        <time>2025-10-07T07:06:55.843Z</time>
      </trkpt>
      <trkpt lat="46.46858495660126" lon="10.44502180069685">
        <ele>1723.94</ele>
        <time>2025-10-07T07:06:58.084Z</time>
      </trkpt>
      <trkpt lat="46.468563582748175" lon="10.44497586786747">
        <ele>1723.67</ele>
        <time>2025-10-07T07:07:00.328Z</time>
      </trkpt>
      <trkpt lat="46.46855453029275" lon="10.444957092404366">
        <ele>1723.43</ele>
        <time>2025-10-07T07:07:02.573Z</time>
      </trkpt>
      <trkpt lat="46.46847012452781" lon="10.444903783500195">
        <ele>1723.22</ele>
        <time>2025-10-07T07:07:04.825Z</time>
      </trkpt>
      <trkpt lat="46.46842553280294" lon="10.444867322221398">
        <ele>1723.0</ele>
        <time>2025-10-07T07:07:07.081Z</time>
      </trkpt>
      <trkpt lat="46.46831162273884" lon="10.44475408270955">
        <ele>1722.72</ele>
        <time>2025-10-07T07:07:09.346Z</time>
      </trkpt>
      <trkpt lat="46.46830290555954" lon="10.444740671664476">
        <ele>1722.47</ele>
        <time>2025-10-07T07:07:11.612Z</time>
      </trkpt>
      <trkpt lat="46.468119425699115" lon="10.444692224264145">
        <ele>1722.3</ele>
        <time>2025-10-07T07:07:13.892Z</time>
      </trkpt>
      <trkpt lat="46.46802915260196" lon="10.444660456851125">
        <ele>1722.02</ele>
        <time>2025-10-07T07:07:16.178Z</time>
      </trkpt>
      <trkpt lat="46.46798481233418" lon="10.44464461505413">
        <ele>1721.73</ele>
        <time>2025-10-07T07:07:18.468Z</time>
      </trkpt>
      <trkpt lat="46.46792999468744" lon="10.44464947655797">
        <ele>1721.43</ele>
        <time>2025-10-07T07:07:20.761Z</time>
      </trkpt>
      <trkpt lat="46.4678474329412" lon="10.444604884833097">
        <ele>1720.99</ele>
        <time>2025-10-07T07:07:23.061Z</time>
      </trkpt>
      <trkpt lat="46.46783326752484" lon="10.444600526243448">
        <ele>1720.54</ele>
        <time>2025-10-07T07:07:25.362Z</time>
      </trkpt>
      <trkpt lat="46.46764928475022" lon="10.44449801556766">
        <ele>1719.96</ele>
        <time>2025-10-07T07:07:27.677Z</time>
      </trkpt>
      <trkpt lat="46.46760502830148" lon="10.444475803524256">
        <ele>1719.38</ele>
        <time>2025-10-07T07:07:29.995Z</time>
      </trkpt>
      <trkpt lat="46.46745080128312" lon="10.44441838748753">
        <ele>1718.78</ele>
        <time>2025-10-07T07:07:32.325Z</time>
      </trkpt>
      <trkpt lat="46.46734954789281" lon="10.444269441068172">
        <ele>1717.94</ele>
        <time>2025-10-07T07:07:34.665Z</time>
      </trkpt>
      <trkpt lat="46.46729598753154" lon="10.444206241518259">
        <ele>1717.15</ele>
        <time>2025-10-07T07:07:37.010Z</time>
      </trkpt>
      <trkpt lat="46.4672876894474" lon="10.444194758310914">
        <ele>1716.35</ele>
        <time>2025-10-07T07:07:39.356Z</time>
      </trkpt>
      <trkpt lat="46.467275619506836" lon="10.444024354219437">
        <ele>1715.26</ele>
        <time>2025-10-07T07:07:41.710Z</time>
      </trkpt>
      <trkpt lat="46.467244774103165" lon="10.443943301215768">
        <ele>1714.32</ele>
        <time>2025-10-07T07:07:44.069Z</time>
      </trkpt>
      <trkpt lat="46.467235554009676" lon="10.4439312312752">
        <ele>1713.41</ele>
        <time>2025-10-07T07:07:46.429Z</time>
      </trkpt>
      <trkpt lat="46.46712617017329" lon="10.443781949579716">
        <ele>1712.38</ele>
        <time>2025-10-07T07:07:48.799Z</time>
      </trkpt>
      <trkpt lat="46.467109909281135" lon="10.443739453330636">
        <ele>1711.37</ele>
        <time>2025-10-07T07:07:51.172Z</time>
      </trkpt>
      <trkpt lat="46.467095743864775" lon="10.443728975951672">
        <ele>1710.39</ele>
        <time>2025-10-07T07:07:53.546Z</time>
      </trkpt>
      <trkpt lat="46.46705266088247" lon="10.443687150254846">
        <ele>1709.36</ele>
        <time>2025-10-07T07:07:55.924Z</time>
      </trkpt>
      <trkpt lat="46.4669821690768" lon="10.443656472489238">
        <ele>1708.35</ele>
        <time>2025-10-07T07:07:58.307Z</time>
      </trkpt>
      <trkpt lat="46.46695375442505" lon="10.443596877157688">
        <ele>1707.25</ele>
        <time>2025-10-07T07:08:00.693Z</time>
      </trkpt>
      <trkpt lat="46.466871444135904" lon="10.443547507748008">
        <ele>1706.19</ele>
        <time>2025-10-07T07:08:03.086Z</time>
      </trkpt>
      <trkpt lat="46.466782512143254" lon="10.443486403673887">
        <ele>1705.09</ele>
        <time>2025-10-07T07:08:05.486Z</time>
      </trkpt>
      <trkpt lat="46.466755690053105" lon="10.44346796348691">
        <ele>1704.01</ele>
        <time>2025-10-07T07:08:07.888Z</time>
      </trkpt>
      <trkpt lat="46.46673255600035" lon="10.443429071456194">
        <ele>1702.9</ele>
        <time>2025-10-07T07:08:10.293Z</time>
      </trkpt>
      <trkpt lat="46.4667022973299" lon="10.443362100049853">
        <ele>1701.78</ele>
        <time>2025-10-07T07:08:12.701Z</time>
      </trkpt>
      <trkpt lat="46.46656927652657" lon="10.443182727321982">
        <ele>1700.45</ele>
        <time>2025-10-07T07:08:15.122Z</time>
      </trkpt>
      <trkpt lat="46.46656005643308" lon="10.443167639896274">
        <ele>1699.44</ele>
        <time>2025-10-07T07:08:17.544Z</time>
      </trkpt>
      <trkpt lat="46.466539185494184" lon="10.443141739815474">
        <ele>1698.46</ele>
        <time>2025-10-07T07:08:19.968Z</time>
      </trkpt>
      <trkpt lat="46.466454192996025" lon="10.443005617707968">
        <ele>1697.35</ele>
        <time>2025-10-07T07:08:22.401Z</time>
      </trkpt>
      <trkpt lat="46.466335002332926" lon="10.44284300878644">
        <ele>1696.22</ele>
        <time>2025-10-07T07:08:24.846Z</time>
      </trkpt>
      <trkpt lat="46.4662619959563" lon="10.442738821730018">
        <ele>1695.35</ele>
        <time>2025-10-07T07:08:27.299Z</time>
      </trkpt>
      <trkpt lat="46.466220086440444" lon="10.442703366279602">
        <ele>1694.79</ele>
        <time>2025-10-07T07:08:29.755Z</time>
      </trkpt>
      <trkpt lat="46.466195192188025" lon="10.442693391814828">
        <ele>1694.45</ele>
        <time>2025-10-07T07:08:32.213Z</time>
      </trkpt>
      <trkpt lat="46.46611179225147" lon="10.442720465362072">
        <ele>1694.24</ele>
        <time>2025-10-07T07:08:34.677Z</time>
      </trkpt>
      <trkpt lat="46.46603283472359" lon="10.442881397902966">
        <ele>1694.49</ele>
        <time>2025-10-07T07:08:37.151Z</time>
      </trkpt>
      <trkpt lat="46.465918589383364" lon="10.443017520010471">
        <ele>1694.79</ele>
        <time>2025-10-07T07:08:39.635Z</time>
      </trkpt>
      <trkpt lat="46.465891767293215" lon="10.443048616871238">
        <ele>1695.02</ele>
        <time>2025-10-07T07:08:42.122Z</time>
      </trkpt>
      <trkpt lat="46.465879529714584" lon="10.443064207211137">
        <ele>1695.27</ele>
        <time>2025-10-07T07:08:44.610Z</time>
      </trkpt>
      <trkpt lat="46.46579621359706" lon="10.443162275478244">
        <ele>1695.71</ele>
        <time>2025-10-07T07:08:47.106Z</time>
      </trkpt>
      <trkpt lat="46.4656834769994" lon="10.443250369280577">
        <ele>1696.22</ele>
        <time>2025-10-07T07:08:49.611Z</time>
      </trkpt>
      <trkpt lat="46.46565170958638" lon="10.443261601030827">
        <ele>1696.42</ele>
        <time>2025-10-07T07:08:52.118Z</time>
      </trkpt>
      <trkpt lat="46.46554743871093" lon="10.44327543117106">
        <ele>1696.62</ele>
        <time>2025-10-07T07:08:54.633Z</time>
      </trkpt>
      <trkpt lat="46.465489687398076" lon="10.443268306553364">
        <ele>1696.74</ele>
        <time>2025-10-07T07:08:57.152Z</time>
      </trkpt>
      <trkpt lat="46.46547585725784" lon="10.443258080631495">
        <ele>1696.51</ele>
        <time>2025-10-07T07:08:59.672Z</time>
      </trkpt>
      <trkpt lat="46.46543704904616" lon="10.443188259378076">
        <ele>1696.13</ele>
        <time>2025-10-07T07:09:02.196Z</time>
      </trkpt>
      <trkpt lat="46.46545574069023" lon="10.443152384832501">
        <ele>1695.41</ele>
        <time>2025-10-07T07:09:04.722Z</time>
      </trkpt>
      <trkpt lat="46.465470073744655" lon="10.442933030426502">
        <ele>1694.21</ele>
        <time>2025-10-07T07:09:07.259Z</time>
      </trkpt>
      <trkpt lat="46.46545859053731" lon="10.442756926640868">
        <ele>1693.09</ele>
        <time>2025-10-07T07:09:09.805Z</time>
      </trkpt>
      <trkpt lat="46.46542581729591" lon="10.442643268033862">
        <ele>1691.92</ele>
        <time>2025-10-07T07:09:12.357Z</time>
      </trkpt>
      <trkpt lat="46.465418273583055" lon="10.44258551672101">
        <ele>1690.72</ele>
        <time>2025-10-07T07:09:14.912Z</time>
      </trkpt>
      <trkpt lat="46.46539941430092" lon="10.442417794838548">
        <ele>1689.29</ele>
        <time>2025-10-07T07:09:17.475Z</time>
      </trkpt>
      <trkpt lat="46.46535943262279" lon="10.44228301383555">
        <ele>1687.91</ele>
        <time>2025-10-07T07:09:20.046Z</time>
      </trkpt>
      <trkpt lat="46.46535851061344" lon="10.442257784307003">
        <ele>1686.52</ele>
        <time>2025-10-07T07:09:22.618Z</time>
      </trkpt>
      <trkpt lat="46.46535540930927" lon="10.442171199247241">
        <ele>1685.03</ele>
        <time>2025-10-07T07:09:25.194Z</time>
      </trkpt>
      <trkpt lat="46.46538080647588" lon="10.441921083256602">
        <ele>1683.29</ele>
        <time>2025-10-07T07:09:27.783Z</time>
      </trkpt>
      <trkpt lat="46.46542531438172" lon="10.441671386361122">
        <ele>1681.63</ele>
        <time>2025-10-07T07:09:30.384Z</time>
      </trkpt>
      <trkpt lat="46.4654469396919" lon="10.44150860980153">
        <ele>1680.2</ele>
        <time>2025-10-07T07:09:32.994Z</time>
      </trkpt>
      <trkpt lat="46.46545079536736" lon="10.441469214856625">
        <ele>1679.08</ele>
        <time>2025-10-07T07:09:35.606Z</time>
      </trkpt>
      <trkpt lat="46.46545959636569" lon="10.44145974330604">
        <ele>1678.07</ele>
        <time>2025-10-07T07:09:38.218Z</time>
      </trkpt>
      <trkpt lat="46.46546898409724" lon="10.441469717770815">
        <ele>1677.17</ele>
        <time>2025-10-07T07:09:40.831Z</time>
      </trkpt>
      <trkpt lat="46.465472588315606" lon="10.441488744691014">
        <ele>1676.39</ele>
        <time>2025-10-07T07:09:43.445Z</time>
      </trkpt>
      <trkpt lat="46.46550980396569" lon="10.441639786586165">
        <ele>1675.77</ele>
        <time>2025-10-07T07:09:46.067Z</time>
      </trkpt>
      <trkpt lat="46.46551474928856" lon="10.441665099933743">
        <ele>1675.13</ele>
        <time>2025-10-07T07:09:48.690Z</time>
      </trkpt>
      <trkpt lat="46.46554936654866" lon="10.441884621977806">
        <ele>1674.62</ele>
        <time>2025-10-07T07:09:51.324Z</time>
      </trkpt>
      <trkpt lat="46.46557920612395" lon="10.441979672759771">
        <ele>1674.03</ele>
        <time>2025-10-07T07:09:53.964Z</time>
      </trkpt>
      <trkpt lat="46.46557920612395" lon="10.442027281969786">
        <ele>1673.46</ele>
        <time>2025-10-07T07:09:56.606Z</time>
      </trkpt>
      <trkpt lat="46.46558272652328" lon="10.44207539409399">
        <ele>1672.85</ele>
        <time>2025-10-07T07:09:59.250Z</time>
      </trkpt>
      <trkpt lat="46.465589348226786" lon="10.442093750461936">
        <ele>1672.17</ele>
        <time>2025-10-07T07:10:01.895Z</time>
      </trkpt>
      <trkpt lat="46.46565590053797" lon="10.442225597798824">
        <ele>1671.44</ele>
        <time>2025-10-07T07:10:04.548Z</time>
      </trkpt>
      <trkpt lat="46.46573133766651" lon="10.442236326634884">
        <ele>1670.52</ele>
        <time>2025-10-07T07:10:07.207Z</time>
      </trkpt>
      <trkpt lat="46.465798476710916" lon="10.442130463197827">
        <ele>1669.46</ele>
        <time>2025-10-07T07:10:09.873Z</time>
      </trkpt>
      <trkpt lat="46.46590190939605" lon="10.441980678588152">
        <ele>1668.41</ele>
        <time>2025-10-07T07:10:12.549Z</time>
      </trkpt>
      <trkpt lat="46.46591221913695" lon="10.441964082419872">
        <ele>1667.42</ele>
        <time>2025-10-07T07:10:15.227Z</time>
      </trkpt>
      <trkpt lat="46.466008611023426" lon="10.44184279628098">
        <ele>1666.26</ele>
        <time>2025-10-07T07:10:17.914Z</time>
      </trkpt>
      <trkpt lat="46.46613241173327" lon="10.441752104088664">
        <ele>1665.05</ele>
        <time>2025-10-07T07:10:20.611Z</time>
      </trkpt>
      <trkpt lat="46.46621849387884" lon="10.44168253429234">
        <ele>1663.88</ele>
        <time>2025-10-07T07:10:23.315Z</time>
      </trkpt>
      <trkpt lat="46.46628621965647" lon="10.44163123704493">
        <ele>1662.65</ele>
        <time>2025-10-07T07:10:26.024Z</time>
      </trkpt>
      <trkpt lat="46.46637758240104" lon="10.441545406356454">
        <ele>1661.34</ele>
        <time>2025-10-07T07:10:28.741Z</time>
      </trkpt>
      <trkpt lat="46.46642074920237" lon="10.441426131874323">
        <ele>1659.93</ele>
        <time>2025-10-07T07:10:31.464Z</time>
      </trkpt>
      <trkpt lat="46.466421922668815" lon="10.441410290077329">
        <ele>1658.7</ele>
        <time>2025-10-07T07:10:34.188Z</time>
      </trkpt>
      <trkpt lat="46.466407254338264" lon="10.441324207931757">
        <ele>1657.36</ele>
        <time>2025-10-07T07:10:36.917Z</time>
      </trkpt>
      <trkpt lat="46.46640297956765" lon="10.441263690590858">
        <ele>1656.07</ele>
        <time>2025-10-07T07:10:39.649Z</time>
      </trkpt>
      <trkpt lat="46.46639694459736" lon="10.441221445798874">
        <ele>1654.88</ele>
        <time>2025-10-07T07:10:42.383Z</time>
      </trkpt>
      <trkpt lat="46.46639870479703" lon="10.441151708364487">
        <ele>1653.72</ele>
        <time>2025-10-07T07:10:45.120Z</time>
      </trkpt>
      <trkpt lat="46.46640214137733" lon="10.44110300950706">
        <ele>1652.73</ele>
        <time>2025-10-07T07:10:47.860Z</time>
      </trkpt>
      <trkpt lat="46.46641714498401" lon="10.440902095288038">
        <ele>1651.7</ele>
        <time>2025-10-07T07:10:50.610Z</time>
      </trkpt>
      <trkpt lat="46.466429298743606" lon="10.440837386995554">
        <ele>1651.06</ele>
        <time>2025-10-07T07:10:53.363Z</time>
      </trkpt>
      <trkpt lat="46.4665022213012" lon="10.440728506073356">
        <ele>1650.66</ele>
        <time>2025-10-07T07:10:56.123Z</time>
      </trkpt>
      <trkpt lat="46.46657916717231" lon="10.440698247402906">
        <ele>1650.46</ele>
        <time>2025-10-07T07:10:58.889Z</time>
      </trkpt>
      <trkpt lat="46.46659282967448" lon="10.440698834136128">
        <ele>1650.28</ele>
        <time>2025-10-07T07:11:01.656Z</time>
      </trkpt>
      <trkpt lat="46.46664354018867" lon="10.44070964679122">
        <ele>1650.28</ele>
        <time>2025-10-07T07:11:04.427Z</time>
      </trkpt>
      <trkpt lat="46.466661393642426" lon="10.440712412819266">
        <ele>1650.29</ele>
        <time>2025-10-07T07:11:07.199Z</time>
      </trkpt>
      <trkpt lat="46.46672618575394" lon="10.44072582386434">
        <ele>1650.41</ele>
        <time>2025-10-07T07:11:09.976Z</time>
      </trkpt>
      <trkpt lat="46.46684596315026" lon="10.440748455002904">
        <ele>1650.61</ele>
        <time>2025-10-07T07:11:12.761Z</time>
      </trkpt>
      <trkpt lat="46.4669322129339" lon="10.44075608253479">
        <ele>1650.84</ele>
        <time>2025-10-07T07:11:15.553Z</time>
      </trkpt>
      <trkpt lat="46.466954508796334" lon="10.440757842734456">
        <ele>1651.07</ele>
        <time>2025-10-07T07:11:18.346Z</time>
      </trkpt>
      <trkpt lat="46.46701016463339" lon="10.440770164132118">
        <ele>1651.34</ele>
        <time>2025-10-07T07:11:21.143Z</time>
      </trkpt>
      <trkpt lat="46.46707118488848" lon="10.440808217972517">
        <ele>1651.66</ele>
        <time>2025-10-07T07:11:23.945Z</time>
      </trkpt>
      <trkpt lat="46.4670873619616" lon="10.440855408087373">
        <ele>1651.99</ele>
        <time>2025-10-07T07:11:26.750Z</time>
      </trkpt>
      <trkpt lat="46.467263381928205" lon="10.440920451655984">
        <ele>1652.23</ele>
        <time>2025-10-07T07:11:29.567Z</time>
      </trkpt>
      <trkpt lat="46.467302022501826" lon="10.440942328423262">
        <ele>1652.4</ele>
        <time>2025-10-07T07:11:32.387Z</time>
      </trkpt>
      <trkpt lat="46.46739958785474" lon="10.441003013402224">
        <ele>1652.49</ele>
        <time>2025-10-07T07:11:35.215Z</time>
      </trkpt>
      <trkpt lat="46.46749665029347" lon="10.441095130518079">
        <ele>1652.5</ele>
        <time>2025-10-07T07:11:38.051Z</time>
      </trkpt>
      <trkpt lat="46.467557083815336" lon="10.441123209893703">
        <ele>1652.21</ele>
        <time>2025-10-07T07:11:40.892Z</time>
      </trkpt>
      <trkpt lat="46.46761097945273" lon="10.441135363653302">
        <ele>1651.88</ele>
        <time>2025-10-07T07:11:43.737Z</time>
      </trkpt>
      <trkpt lat="46.467684069648385" lon="10.441179536283016">
        <ele>1651.57</ele>
        <time>2025-10-07T07:11:46.587Z</time>
      </trkpt>
      <trkpt lat="46.467766128480434" lon="10.441228318959475">
        <ele>1651.3</ele>
        <time>2025-10-07T07:11:49.444Z</time>
      </trkpt>
      <trkpt lat="46.46777953952551" lon="10.441247932612896">
        <ele>1651.2</ele>
        <time>2025-10-07T07:11:52.302Z</time>
      </trkpt>
      <trkpt lat="46.467794962227345" lon="10.441265618428588">
        <ele>1651.09</ele>
        <time>2025-10-07T07:11:55.162Z</time>
      </trkpt>
    </trkseg>
  </trk>
</gpx>
